province,city,terminal_name,address,lat,lng,timetable_url
서울특별시,강서구,김포공항정류소,대한민국 서울특별시 강서구 공항동 김포공항정류소,37.560296,126.802333,https://transportation.asamaru.net/시외버스/시간표/김포공항정류소/
서울특별시,광진구,동서울종합터미널,대한민국 서울특별시 광진구 구의제3동 강변역로 50 동서울종합터미널,37.5333713,127.0933675,https://transportation.asamaru.net/시외버스/시간표/동서울종합터미널/
서울특별시,서초구,서울고속버스터미널(경부 영동선),대한민국 서울특별시 서초구 반포동 신반포로 194 서울고속버스터미널,37.5054076,127.0070817,https://transportation.asamaru.net/시외버스/시간표/서울고속버스터미널/
서울특별시,서초구,서울남부터미널,대한민국 서울특별시 서울남부버스터미널,37.484235,127.016054,https://transportation.asamaru.net/시외버스/시간표/서울남부터미널/
서울특별시,서초구,센트럴시티터미널(호남선),대한민국 서울특별시 서초구 신반포로 190 센트럴시티터미널,37.504893,127.003216,https://transportation.asamaru.net/시외버스/시간표/센트럴시티터미널/
서울특별시,송파구,잠실역정류소,대한민국 서울특별시 잠실역시외버스정류소,37.515407,127.098539,https://transportation.asamaru.net/시외버스/시간표/잠실역정류소/
서울특별시,송파구,잠실역중앙정류소,대한민국 서울특별시 잠실6동 잠실,37.5132612,127.1001336,https://transportation.asamaru.net/시외버스/시간표/잠실역시외버스정류소/
서울특별시,송파구,장지역시외버스정류소,대한민국 서울특별시 장지동 장지역.가든파이브,37.4790113,127.126045,https://transportation.asamaru.net/시외버스/시간표/장지역시외버스정류소/
서울특별시,중랑구,상봉시외버스터미널,대한민국 서울특별시 상봉시외버스터미널,37.5965047,127.0922358,https://transportation.asamaru.net/시외버스/시간표/상봉시외버스터미널/
경기도,가평군,가평터미널,대한민국 가평군 가평터미널,37.824365,127.51541,https://transportation.asamaru.net/시외버스/시간표/가평시외버스터미널/
경기도,가평군,대성리정류소,대한민국 가평군 대성리정류소,37.684144,127.37874,https://transportation.asamaru.net/시외버스/시간표/대성리정류소/
경기도,가평군,청평터미널,대한민국 가평군 청평터미널,37.7382231,127.4204344,https://transportation.asamaru.net/시외버스/시간표/청평터미널/
경기도,고양시 일산동구,고양종합터미널,대한민국 경기도 고양시 일산동구 중앙로 1036,37.6432013,126.7897215,https://transportation.asamaru.net/시외버스/시간표/고양종합터미널/
경기도,광명시,광명종합터미널,대한민국 광명시 광명종합터미널,37.41850549999999,126.8863925,https://transportation.asamaru.net/시외버스/시간표/광명종합터미널/
경기도,광명시,광명철산역정류소,대한민국 광명시 철산역정류소,37.477125,126.870412,https://transportation.asamaru.net/시외버스/시간표/철산역정류소/
경기도,광주시,경기도광주종합터미널,대한민국 광주시 경안동 광주종합터미널,37.409949,127.261237,https://transportation.asamaru.net/시외버스/시간표/광주종합터미널/
경기도,구리시,구리시외버스정류장,대한민국 구리시 구리시외버스정류장,37.601914,127.142842,https://transportation.asamaru.net/시외버스/시간표/구리시외버스정류장-하행/
경기도,군포시,군포산본터미널,대한민국 경기도 군포시 산본동,37.3611337,126.9228713,https://transportation.asamaru.net/시외버스/시간표/군포산본터미널/
경기도,군포시,군포시외버스정류소,대한민국 군포시 군포시외버스정류소,37.331728,126.927288,https://transportation.asamaru.net/시외버스/시간표/군포시외버스정류소/
경기도,부천시 원미구,부천터미널소풍,대한민국 경기도 부천시 원미구 상동 송내대로 239 부천터미널 소풍 앞,37.5043106,126.7577131,https://transportation.asamaru.net/시외버스/시간표/부천종합터미널/
경기도,성남시 분당구,성남종합버스터미널,대한민국 성남시 성남종합버스터미널,37.4125292,127.1270855,https://transportation.asamaru.net/시외버스/시간표/성남종합버스터미널/
경기도,수원시 권선구,서수원버스터미널,대한민국 수원시 서수원시외버스터미널,37.282142,126.969908,https://transportation.asamaru.net/시외버스/시간표/서수원시외버스터미널/
경기도,수원시 권선구,수원버스터미널,대한민국 경기도 수원시 권선구 권선동 경수대로 270 수원종합버스터미널,37.2503146,127.0208435,https://transportation.asamaru.net/시외버스/시간표/수원종합버스터미널/
경기도,수원시 영통구,경제과학진흥원,대한민국 경기도 수원시 영통구 광교로 107 경기도경제과학진흥원 KR,37.2918096,127.0436798,https://transportation.asamaru.net/시외버스/시간표/경제과학진흥원/
경기도,수원시 영통구,아주대병원,대한민국 경기도 수원시 영통구 월드컵로 164,37.2800775,127.0482628,https://transportation.asamaru.net/시외버스/시간표/아주대병원/
경기도,수원시 팔달구,아주대정류소,대한민국 경기도 수원시 영통구 월드컵로 206,37.2820187,127.0463409,https://transportation.asamaru.net/시외버스/시간표/아주대터미널/
경기도,수원시 팔달구,우만동터미널,대한민국 경기도 수원시 팔달구 우만동 274,37.2923669,127.0325286,https://transportation.asamaru.net/시외버스/시간표/우만동터미널/
경기도,수원시 팔달구,창현고.유신고,대한민국 수원시,37.2847934,127.0415663,https://transportation.asamaru.net/시외버스/시간표/창현고-유신고/
경기도,시흥시,시흥종합버스터미널,대한민국 시흥시 시흥종합버스터미널,37.342638,126.735835,https://transportation.asamaru.net/시외버스/시간표/시흥종합버스터미널/
경기도,안산시 상록구,안산버스터미널,대한민국 안산시 이동 안산버스터미널,37.316836,126.846252,https://transportation.asamaru.net/시외버스/시간표/안산버스터미널/
경기도,안성시,공도시외버스정류장,대한민국 안성시 공도시외버스터미널,36.998725,127.1663745,https://transportation.asamaru.net/시외버스/시간표/공도정류소/
경기도,안성시,동아방송대정류소,대한민국 안성시 동아방송대정류소,37.057007,127.361301,https://transportation.asamaru.net/시외버스/시간표/동아방송대정류소/
경기도,안성시,두원대정류소,대한민국 안성시 두원대정류소,37.067201,127.421423,https://transportation.asamaru.net/시외버스/시간표/두원대정류소/
경기도,안성시,안성대림동산정류소,대한민국 안성시 대림동산정류소,37.010086,127.203649,https://transportation.asamaru.net/시외버스/시간표/대림동산정류소/
경기도,안성시,안성종합버스터미널,대한민국 안성시 안성종합버스터미널,37.012182,127.2926565,https://transportation.asamaru.net/시외버스/시간표/안성종합버스터미널/
경기도,안성시,안성회관정류소,대한민국 안성시 안성종합버스터미널,37.012182,127.2926565,https://transportation.asamaru.net/시외버스/시간표/안성시민회관터미널/
경기도,안성시,일죽버스터미널,대한민국 경기도 안성시 일죽면,37.09834439999999,127.4687431,https://transportation.asamaru.net/시외버스/시간표/일죽시외버스터미널/
경기도,안성시,죽산시외버스터미널,대한민국 안성시 죽산시외버스터미널,37.076393,127.427134,https://transportation.asamaru.net/시외버스/시간표/죽산시외버스터미널/
경기도,안성시,중앙대,대한민국 안성시 중앙대입구,37.012254,127.226258,https://transportation.asamaru.net/시외버스/시간표/중앙대안성캠퍼스정류소/
경기도,안성시,풍림아파트(안성),대한민국 경기도 안성시 공도읍 서동대로 4079,36.9997487,127.1585237,https://transportation.asamaru.net/시외버스/시간표/풍림아파트-안성/
경기도,안양시 동안구,범계역정류소,대한민국 안양시 범계역정류소,37.390503,126.9502,https://transportation.asamaru.net/시외버스/시간표/범계역정류소/
경기도,안양시 동안구,의왕내손동,대한민국 경기도 의왕시 내손1동,37.3788606,126.9760471,https://transportation.asamaru.net/시외버스/시간표/의왕내손동/
경기도,안양시 동안구,인덕원역,대한민국 안양시 인덕원역4번출구,37.400807,126.976384,https://transportation.asamaru.net/시외버스/시간표/인덕원역/
경기도,안양시 동안구,호계시외버스정류소,대한민국 경기도 안양시 동안구 호계동 918-24,37.3851989,126.9510398,https://transportation.asamaru.net/시외버스/시간표/호계시외버스정류장/
경기도,안양시 만안구,관악역정류소,대한민국 안양시 관악역,37.41957800000001,126.908476,https://transportation.asamaru.net/시외버스/시간표/관악역터미널/
경기도,안양시 만안구,안양시외버스정류장 하행,대한민국 안양시 안양시외버스정류장(하행),37.401905,126.918551,https://transportation.asamaru.net/시외버스/시간표/안양시외버스정류장-하행/
경기도,안양시 만안구,안양역시외버스정류장,대한민국 경기도 안양시 만안구 안양로314번길 27,37.401141,126.9215767,https://transportation.asamaru.net/시외버스/시간표/안양역시외버스터미널/
경기도,양평군,양평버스터미널,대한민국 양평군 양평시외버스터미널,37.4910755,127.5017675,https://transportation.asamaru.net/시외버스/시간표/양평시외버스터미널/
경기도,양평군,용문버스터미널,대한민국 양평군 용문버스터미널,37.483605,127.592181,https://transportation.asamaru.net/시외버스/시간표/용문시외버스터미널/
경기도,여주시,가남태평버스정류소,대한민국 여주시 경기도 여주군 가남면 태평로 56 (태평리),37.2049119,127.5439994,https://transportation.asamaru.net/시외버스/시간표/태평시외버스터미널/
경기도,여주시,여주대정류소,대한민국 여주시 여주대정류소,37.26784,127.63767,https://transportation.asamaru.net/시외버스/시간표/여주대정류소/
경기도,여주시,여주종합터미널,대한민국 여주시 여주종합터미널,37.2909468,127.6349138,https://transportation.asamaru.net/시외버스/시간표/여주종합터미널/
경기도,오산시,교육지원청사거리(오산),대한민국 수원시 수원시청사거리,37.264362,127.025602,https://transportation.asamaru.net/시외버스/시간표/교육지원청사거리-오산/
경기도,오산시,세교2지구7단지,대한민국 오산시 세교2지구7단지,37.149521,127.053536,https://transportation.asamaru.net/시외버스/시간표/세교2지구7단지/
경기도,오산시,세교고인돌공원,대한민국 오산시 세교고인돌공원,37.174919,127.049594,https://transportation.asamaru.net/시외버스/시간표/세교고인돌공원/
경기도,오산시,세교한신더휴,대한민국 경기도 오산시 초평중앙로 10 한신더휴,37.1357266,127.0504679,https://transportation.asamaru.net/시외버스/시간표/세교한신더휴/
경기도,오산시,세마역정류장,대한민국 오산시 세마역,37.1878476,127.0430124,https://transportation.asamaru.net/시외버스/시간표/세마역터미널/
경기도,오산시,오산대역후문,대한민국 오산시 오산대역후문,37.168944,127.064284,https://transportation.asamaru.net/시외버스/시간표/오산대역후문/
경기도,오산시,오산시청,대한민국 경기도 오산시 성호대로 141,37.1497727,127.0770233,https://transportation.asamaru.net/시외버스/시간표/오산시청/
경기도,오산시,오산역환승센터,대한민국 오산시 오산역환승센터,37.146249,127.066961,https://transportation.asamaru.net/시외버스/시간표/오산역환승센터/
경기도,오산시,오산초등학교,대한민국 경기도 오산시 가수로 16,37.14483750000001,127.0499188,https://transportation.asamaru.net/시외버스/시간표/오산초등학교/
경기도,오산시,운암주공1단지,대한민국 경기도 오산시 운암로 122,37.1574318,127.0800872,https://transportation.asamaru.net/시외버스/시간표/운암주공1단지/
경기도,오산시,운암주공5단지,대한민국 오산시 운암주공5단지,37.146242,127.07518,https://transportation.asamaru.net/시외버스/시간표/운암주공5단지/
경기도,오산시,호반써밋라포레(오산),대한민국 경기도 오산시 죽담로 108,37.1648224,127.0511341,https://transportation.asamaru.net/시외버스/시간표/호반써밋라포레-오산/
경기도,용인시 기흥구,강남대역,대한민국 용인시 강남대,37.270197,127.126007,https://transportation.asamaru.net/시외버스/시간표/강남대역/
경기도,용인시 기흥구,신갈영덕시외버스정류장,대한민국 용인시 신갈영덕시외버스정류장,37.2699571,127.096889,https://transportation.asamaru.net/시외버스/시간표/신갈영덕시외버스정류장/
경기도,용인시 기흥구,신갈용인정류소,대한민국 경기도 용인시 기흥구 신갈동 469-29,37.2714769,127.1045168,https://transportation.asamaru.net/시외버스/시간표/신갈고속시외버스정류소/
경기도,용인시 기흥구,영통입구(인천방면),대한민국 인천광역시,37.4751578,126.6312666,https://transportation.asamaru.net/시외버스/시간표/영통입구-인천방면/
경기도,용인시 기흥구,영통입구정류소,대한민국 용인시 신갈고속시외버스정류소,37.271326,127.1041235,https://transportation.asamaru.net/시외버스/시간표/영통입구터미널/
경기도,용인시 기흥구,용인기흥역시외버스정류소,대한민국 용인시 기흥역시외버스정류소,37.274726,127.116121,https://transportation.asamaru.net/시외버스/시간표/기흥역시외버스정류소/
경기도,용인시 수지구,죽전(경전),대한민국 경기도 용인시 수지구 포은대로 536 죽전,37.324583,127.107398,https://transportation.asamaru.net/시외버스/시간표/죽전-경전/
경기도,용인시 처인구,명지대,대한민국 경기도 용인시 처인구,37.2033411,127.2529419,https://transportation.asamaru.net/시외버스/시간표/명지대/
경기도,용인시 처인구,에버랜드,대한민국 경기도 용인시 처인구 포곡읍 에버랜드로 199,37.2939104,127.2025664,https://transportation.asamaru.net/시외버스/시간표/에버랜드(주차장)/
경기도,용인시 처인구,용인공용버스터미널,대한민국 용인시 김량장동 용인터미널,37.231763,127.209618,https://transportation.asamaru.net/시외버스/시간표/용인공용버스터미널/
경기도,용인시 처인구,용인대,대한민국 경기도 용인시 처인구 용인대학로 134,37.2266747,127.1681805,https://transportation.asamaru.net/시외버스/시간표/용인대/
경기도,용인시 처인구,용인정류소,대한민국 용인시 신갈고속시외버스정류소,37.271326,127.1041235,https://transportation.asamaru.net/시외버스/시간표/용인정류소/
경기도,의왕시,고천시외버스정류장,대한민국 의왕시 의왕시고천시외버스정류장,37.348896,126.973288,https://transportation.asamaru.net/시외버스/시간표/고천터미널/
경기도,의왕시,의왕TG,대한민국 경기도 의왕시 왕곡동 260,37.3474228,126.9844473,https://transportation.asamaru.net/시외버스/시간표/의왕tg/
경기도,의왕시,의왕고천,대한민국 경기도 의왕시 고천동,37.3454169,126.9694423,https://transportation.asamaru.net/시외버스/시간표/의왕고천/
경기도,의정부시,만가대사거리,의정부시 만가대사거리,37.7302389,127.0855377,https://transportation.asamaru.net/시외버스/시간표/만가대사거리/
경기도,의정부시,의정부시외버스터미널,대한민국 의정부시 의정부시외버스터미널,37.746736,127.056648,https://transportation.asamaru.net/시외버스/시간표/의정부시외버스터미널/
경기도,의정부시,의정부역정류장,대한민국 의정부시 의정부,37.7387295,127.0458908,https://transportation.asamaru.net/시외버스/시간표/의정부역/
경기도,의정부시,이마트의정부점,대한민국 경기도 의정부시 민락로 210,37.7430556,127.1022222,https://transportation.asamaru.net/시외버스/시간표/이마트의정부점/
경기도,의정부시,청구아파트(민락동),대한민국 의정부시 청구아파트,37.737393,127.095661,https://transportation.asamaru.net/시외버스/시간표/청구아파트-민락동/
경기도,의정부시,푸른마당근린공원,대한민국 경기도 의정부시 민락동 328 푸른마당근린공원,37.7482722,127.1078147,https://transportation.asamaru.net/시외버스/시간표/푸른마당근린공원/
경기도,이천시,아미리정류소,대한민국 이천시 아미리정류소,37.25327,127.488948,https://transportation.asamaru.net/시외버스/시간표/아미리정류소/
경기도,이천시,오천(이천시),대한민국 경기도 이천시,37.2891308,127.4530256,https://transportation.asamaru.net/시외버스/시간표/오천/
경기도,이천시,오천리더웰아파트정류장,대한민국 이천시 오천리더웰아파트,37.250815,127.359455,https://transportation.asamaru.net/시외버스/시간표/오천리더웰아파트/
경기도,이천시,이천종합터미널,대한민국 이천시 중리동 이천종합터미널,37.277744,127.446913,https://transportation.asamaru.net/시외버스/시간표/이천종합터미널/
경기도,이천시,이황리정류소,대한민국 이천시 이황리정류소,37.162291,127.575222,https://transportation.asamaru.net/시외버스/시간표/이황리정류소/
경기도,이천시,장호원정류소,대한민국 이천시 이황리정류소,37.162291,127.575222,https://transportation.asamaru.net/시외버스/시간표/장호원시외버스터미널/
경기도,평택시,송탄시외버스터미널,대한민국 경기도 평택시 지산로 25,37.0794318,127.0576683,https://transportation.asamaru.net/시외버스/시간표/송탄시외버스터미널/
경기도,평택시,숙성리정류소,대한민국 평택시 숙성리정류소,37.007675,126.98141,https://transportation.asamaru.net/시외버스/시간표/숙성리정류소/
경기도,평택시,안중버스터미널,대한민국 평택시 안중읍 안중버스터미널(시외),36.9777642,126.9232502,https://transportation.asamaru.net/시외버스/시간표/안중버스터미널/
경기도,평택시,안중오거리정류소,평택시 안중오거리,36.9896044,126.93274,https://transportation.asamaru.net/시외버스/시간표/안중오거리정류소/
경기도,평택시,태평아파트,대한민국 평택시,37.0164918,127.0336461,https://transportation.asamaru.net/시외버스/시간표/태평아파트/
경기도,평택시,평택대정류소,대한민국 평택시 평택대정류소,36.9932,127.13305,https://transportation.asamaru.net/시외버스/시간표/평택대정류소/
경기도,평택시,평택시외버스터미널,대한민국 평택시 평택시외버스터미널,36.990656,127.0882165,https://transportation.asamaru.net/시외버스/시간표/평택시외버스터미널/
경기도,평택시,평택호,평택시 아산호,36.9462494,126.9856527,https://transportation.asamaru.net/시외버스/시간표/평택호/
경기도,포천시,대진대정류소,대한민국 포천시 대진대정류소,37.85433800000001,127.166893,https://transportation.asamaru.net/시외버스/시간표/대진대정류소/
경기도,포천시,송우리정류소,대한민국 경기도 포천시 소흘읍 송우리,37.8317448,127.1385053,https://transportation.asamaru.net/시외버스/시간표/송우리시외버스터미널/
경기도,포천시,신북정류소,대한민국 경기도 포천시 군내면 상성북리 697,37.9018064,127.2253834,https://transportation.asamaru.net/시외버스/시간표/신북시외버스정류소/
경기도,포천시,양문정류소,대한민국 포천시 양문정류소,38.001216,127.242399,https://transportation.asamaru.net/시외버스/시간표/양문정류소/
경기도,포천시,운천정류소,대한민국 경기도 포천시 영북면 운천로,38.0915888,127.2652063,https://transportation.asamaru.net/시외버스/시간표/운천시외버스터미널/
경기도,포천시,이동정류소,대한민국 포천시 이동정류소,38.035756,127.366623,https://transportation.asamaru.net/시외버스/시간표/이동정류소/
경기도,포천시,일동버스터미널,대한민국 포천시 일동버스터미널,37.957455,127.317442,https://transportation.asamaru.net/시외버스/시간표/일동버스터미널/
경기도,포천시,포천시외버스터미널,대한민국 경기도 포천시 신읍동 42-11 포천시외버스터미널,37.8975,127.203615,https://transportation.asamaru.net/시외버스/시간표/포천시외버스터미널/
경기도,하남시,하남시버스환승공영차고지,대한민국 하남시 천현동 하남시버스환승공영차고지,37.538855,127.229924,https://transportation.asamaru.net/시외버스/시간표/하남시버스환승공영차고지/
경기도,화성시,동탄역,대한민국 경기도 화성시 동탄면 청계리 산20-1 동탄역,37.199327,127.0970177,https://transportation.asamaru.net/시외버스/시간표/동탄역/
경기도,화성시,향남환승터미널,대한민국 화성시 향남환승터미널,37.132971,126.921895,https://transportation.asamaru.net/시외버스/시간표/향남환승터미널/
인천광역시,미추홀구,인천종합터미널,대한민국 인천광역시 미추홀구 연남로 35 인천종합터미널,37.441546,126.701496,https://transportation.asamaru.net/시외버스/시간표/인천종합터미널/
인천광역시,중구,인천공항T1정류장,대한민국 인천광역시 인천공항T1,37.4487261,126.4511545,https://transportation.asamaru.net/시외버스/시간표/인천공항터미널/
인천광역시,중구,인천공항T2정류장,대한민국 인천광역시 중구 공항로 272 인천국제공항제2여객터미널청사,37.4688875,126.433359,https://transportation.asamaru.net/시외버스/시간표/인천공항2터미널/
대전광역시,대덕구,신탄진역정류장,대한민국 대전광역시 신탄진역,36.450017,127.428081,https://transportation.asamaru.net/시외버스/시간표/신탄진역/
대전광역시,동구,대전복합터미널,대한민국 대전광역시 대전복합터미널,36.3516567,127.4374114,https://transportation.asamaru.net/시외버스/시간표/대전복합터미널/
대전광역시,동구,대전신흥정류장,대한민국 대전광역시 신흥동시외버스정류장,36.3224535,127.4449795,https://transportation.asamaru.net/시외버스/시간표/대전신흥/
대전광역시,서구,관저건양대병원시외버스정류소,대한민국 대전광역시 관저.건양대병원정류소,36.3024169,127.3397015,https://transportation.asamaru.net/시외버스/시간표/관저-건양대병원정류소/
대전광역시,서구,대전청사시외버스둔산정류소(승차),대한민국 대전광역시 둔산2동 고속버스둔산(청사)정류장,36.361462,127.390504,https://transportation.asamaru.net/시외버스/시간표/대전청사시외버스둔산정류소/
대전광역시,서구,도마동시외버스정류소,대한민국 대전광역시 서구 도마동,36.31909,127.372474,https://transportation.asamaru.net/시외버스/시간표/대전도마동터미널/
대전광역시,유성구,대전도룡동정류소,대한민국 대전광역시 유성구 도룡동,36.38141299999999,127.3833177,https://transportation.asamaru.net/시외버스/시간표/대전도룡고속시외버스정류장/
대전광역시,유성구,북대전IC시외버스정류소,대한민국 대전광역시,36.4129206,127.3784346,https://transportation.asamaru.net/시외버스/시간표/북대전ic시외버스정류소/
대전광역시,유성구,유성복합터미널,대한민국 대전광역시 유성구 구암동 81-1,36.3562813,127.330509,https://transportation.asamaru.net/시외버스/시간표/유성복합터미널/
대전광역시,유성구,자운대정류소,대한민국 대전광역시 유성구 자운로97번길 410,36.4135189,127.3380601,https://transportation.asamaru.net/시외버스/시간표/자운대터미널/
대전광역시,중구,대전서남부터미널,대한민국 대전광역시 대전서남부터미널,36.312983,127.388103,https://transportation.asamaru.net/시외버스/시간표/대전서남부터미널/
대전광역시,중구,부사동정류장,대한민국 대전광역시 중구 중촌동 번지 지하층 99-3 1호,36.3396937,127.4117533,https://transportation.asamaru.net/시외버스/시간표/부사동시외버스정류장/
대구광역시,군위군,군위버스터미널,대한민국 경상북도 군위군,36.2360107,128.5666676,https://transportation.asamaru.net/시외버스/시간표/군위시외버스공용터미널/
대구광역시,남구,대구서부정류장,대한민국 대구광역시 남구 대명11동 1135-1 서부정류장,35.8367364,128.5577961,https://transportation.asamaru.net/시외버스/시간표/서부정류장/
대구광역시,달성군,현풍공영버스정류장,대한민국 대구광역시 달성군 현풍읍 비슬로 680,35.6970583,128.4392262,https://transportation.asamaru.net/시외버스/시간표/현풍시외버스터미널/
대구광역시,동구,대구공항정류소,대한민국 대구광역시 대구공항정류소,35.899607,128.637728,https://transportation.asamaru.net/시외버스/시간표/대구공항정류소/
대구광역시,동구,대구용계정류소,대한민국 대구광역시 시외고속버스 용계정류소,35.874866,128.679247,https://transportation.asamaru.net/시외버스/시간표/시외고속버스용계정류소/
대구광역시,동구,동대구터미널,대한민국 대구광역시 동대구역복합환승센터앞,35.877557,128.629909,https://transportation.asamaru.net/시외버스/시간표/동대구터미널/
대구광역시,서구,대구북부시외버스터미널,대한민국 대구광역시 대구북부시외버스터미널,35.884246,128.555225,https://transportation.asamaru.net/시외버스/시간표/대구북부시외버스터미널/
대구광역시,서구,서대구역,대한민국 대구광역시 서대구역,35.881484,128.539954,https://transportation.asamaru.net/시외버스/시간표/서대구역/
울산광역시,남구,공업탑시외버스정류장,대한민국 울산광역시 남구 신정동 1127-11,35.5327667,129.3050295,https://transportation.asamaru.net/시외버스/시간표/공업탑시외버스터미널/
울산광역시,남구,울산고속버스터미널,대한민국 울산광역시 남구 삼산로 288,35.5373937,129.3393885,https://transportation.asamaru.net/시외버스/시간표/울산고속버스터미널/
울산광역시,남구,울산공업탑,대한민국 울산광역시 남구 신정동 118-10,35.532239,129.307554,https://transportation.asamaru.net/시외버스/시간표/울산공업탑/
울산광역시,남구,울산법원앞,대한민국 울산광역시 법원앞,35.53532300000001,129.288785,https://transportation.asamaru.net/시외버스/시간표/울산법원앞/
울산광역시,남구,울산시외버스터미널,대한민국 울산광역시 남구 삼산동 1481-15 울산시외버스터미널,35.5365477,129.3396948,https://transportation.asamaru.net/시외버스/시간표/울산시외버스터미널/
울산광역시,남구,울산신복정류소,대한민국 울산광역시 신복환승센터,35.550868,129.263194,https://transportation.asamaru.net/시외버스/시간표/신복환승센터/
울산광역시,북구,울산공항정류소,대한민국 울산광역시 북구 산업로 1103 울산공항 (USN),35.5929642,129.3557708,https://transportation.asamaru.net/시외버스/시간표/울산공항터미널/
울산광역시,북구,호계시외버스정류장,대한민국 울산광역시 북구 호계동 774-12번지,35.6250186,129.3510475,https://transportation.asamaru.net/시외버스/시간표/호계시외버스-정류장/
울산광역시,북구,효문정류소,대한민국 울산광역시 중구 남외동 439-6,35.568873,129.3443518,https://transportation.asamaru.net/시외버스/시간표/효문터미널/
울산광역시,울주군,언양임시시외버스터미널,대한민국 울산광역시 언양임시시외버스터미널,35.562557,129.130164,https://transportation.asamaru.net/시외버스/시간표/언양임시시외버스터미널/
부산광역시,강서구,김해공항정류소,대한민국 부산광역시 대저2동 김해공항정류소,35.172604,128.947379,https://transportation.asamaru.net/시외버스/시간표/김해공항정류소/
부산광역시,금정구,부산종합버스터미널,대한민국 부산광역시 금정구 노포동 133 부산종합버스터미널,35.2847494,129.0953841,https://transportation.asamaru.net/시외버스/시간표/부산종합버스터미널/
부산광역시,기장군,동암후문(아난티코프),대한민국 부산광역시 기장군 기장해안로 268-32,35.1976638,129.2280861,https://transportation.asamaru.net/시외버스/시간표/동암후문-아난티코프/
부산광역시,기장군,반얀트리해운대부산,대한민국 부산광역시 기장군 기장읍 연화리 451-4,35.2068304,129.2243242,https://transportation.asamaru.net/시외버스/시간표/반얀트리해운대부산/
부산광역시,기장군,오시리아테마파크,대한민국 부산광역시 오시리아역,35.19648,129.209529,https://transportation.asamaru.net/시외버스/시간표/오시리아테마파크/
부산광역시,기장군,좌천정류소,대한민국 부산광역시 기장군 장안읍 좌천로 76 좌천정류소,35.3145681,129.243367,https://transportation.asamaru.net/시외버스/시간표/좌천정류소/
부산광역시,동구,부산역,대한민국 부산광역시 동구 초량제3동 중앙대로 부산,35.115225,129.042243,https://transportation.asamaru.net/시외버스/시간표/부산역/
부산광역시,동래구,부산동래시외버스정류소,대한민국 부산광역시 동래구 중앙대로1325번길 24,35.2057248,129.0765839,https://transportation.asamaru.net/시외버스/시간표/동래시외버스정류소/
부산광역시,부산진구,동의대역,대한민국 부산광역시 동의대역,35.153991,129.032099,https://transportation.asamaru.net/시외버스/시간표/동의대역/
부산광역시,부산진구,서면(부산),대한민국 부산광역시 부산진구 중앙대로 지하 730 서면역,35.15781570000001,129.0600331,https://transportation.asamaru.net/시외버스/시간표/서면/
부산광역시,사상구,부산서부사상버스터미널,대한민국 부산광역시 부산서부시외버스터미널,35.1632355,128.984391,https://transportation.asamaru.net/시외버스/시간표/부산서부버스터미널/
부산광역시,사상구,주례역,대한민국 부산광역시 주례역,35.150519,129.003202,https://transportation.asamaru.net/시외버스/시간표/주례역/
부산광역시,사하구,부산신평정류소,대한민국 부산광역시 사하구 하신번영로 127,35.0943164,128.9602121,https://transportation.asamaru.net/시외버스/시간표/부산신평터미널/
부산광역시,수영구,상수도남부사업소,대한민국 부산광역시 수영구,35.1610936,129.1201036,https://transportation.asamaru.net/시외버스/시간표/상수도남부사업소/
부산광역시,연제구,부산(하단),"Hadan station, 부산광역시 대한민국",35.106232,128.966749,https://transportation.asamaru.net/시외버스/시간표/부산-하단/
부산광역시,해운대구,경남마리나아파트,대한민국 부산광역시 해운대구 해운대해변로 99,35.1608358,129.1432469,https://transportation.asamaru.net/시외버스/시간표/경남마리나아파트/
부산광역시,해운대구,부산해운대시외버스정류소,대한민국 부산광역시 해운대구 해운대로 641,35.1651756,129.1607284,https://transportation.asamaru.net/시외버스/시간표/해운대시외버스터미널/
부산광역시,해운대구,센텀호텔,대한민국 부산광역시 해운대구 센텀3로 20,35.1678073,129.1328308,https://transportation.asamaru.net/시외버스/시간표/센텀호텔/
부산광역시,해운대구,신세계백화점,대한민국 부산광역시 해운대구,35.1719465,129.1741038,https://transportation.asamaru.net/시외버스/시간표/신세계백화점/
부산광역시,해운대구,장산역,대한민국 부산광역시 장산역,35.169916,129.176831,https://transportation.asamaru.net/시외버스/시간표/장산역/
부산광역시,해운대구,조선비치호텔,대한민국 부산광역시 67 동백로 Haeundae,35.1559466,129.1540745,https://transportation.asamaru.net/시외버스/시간표/조선비치호텔/
부산광역시,해운대구,파라다이스호텔,대한민국 부산광역시 파라다이스호텔,35.160697,129.164381,https://transportation.asamaru.net/시외버스/시간표/파라다이스호텔/
부산광역시,해운대구,파크하얏트호텔,대한민국 부산광역시 파크하얏트호텔,35.156842,129.141343,https://transportation.asamaru.net/시외버스/시간표/파크하얏트호텔/
부산광역시,해운대구,한화리조트,대한민국 부산광역시 해운대구 마린시티3로 52,35.1544931,129.145102,https://transportation.asamaru.net/시외버스/시간표/한화리조트/
부산광역시,해운대구,해운대수도권시외버스정류장,대한민국 부산광역시 해운대(수도권)시외버스정류소,35.160965,129.153299,https://transportation.asamaru.net/시외버스/시간표/부산해운대-수도권/
부산광역시,해운대구,해운대해수욕장(공항),대한민국 부산광역시 해운대구,35.1719465,129.1741038,https://transportation.asamaru.net/시외버스/시간표/해운대해수욕장-공항/
광주광역시,광산구,송정역시외버스정류장(광주 광산구),대한민국 광주광역시 광주송정역,35.137743,126.790981,https://transportation.asamaru.net/시외버스/시간표/광주송정역시외버스정류소/
광주광역시,광산구,우산동(하남)시외버스정류장,대한민국 광주광역시 우산동(하남)시외버스정류장(하차),35.161185,126.809718,https://transportation.asamaru.net/시외버스/시간표/우산동-하남-시외버스정류장-승차/
광주광역시,남구,진월동시외버스정류장,대한민국 광주광역시 남구 진월동,35.1158914,126.8997433,https://transportation.asamaru.net/시외버스/시간표/광주남부시외버스정류소/
광주광역시,동구,소태터미널,대한민국 광주광역시 소태역,35.123625,126.932349,https://transportation.asamaru.net/시외버스/시간표/소태터미널/
광주광역시,동구,학동시외버스정류장,대한민국 광주광역시 학동 631-5번지 동구 광주광역시 KR,35.1385624,126.9233566,https://transportation.asamaru.net/시외버스/시간표/학동시외버스정류소/
광주광역시,북구,문화동시외버스정류소,대한민국 광주광역시 북구 문화동,35.1836953,126.9350877,https://transportation.asamaru.net/시외버스/시간표/문화동시외버스정류소/
광주광역시,북구,운암동시외버스정류소,대한민국 광주광역시 북구 운암동 434-43,35.1758395,126.8808464,https://transportation.asamaru.net/시외버스/시간표/운암동-시외버스정류소/
광주광역시,서구,광주종합버스터미널(유.스퀘어),대한민국 광주광역시 서구 광천동 49-1 유.스퀘어,35.1612826,126.8798817,https://transportation.asamaru.net/시외버스/시간표/광주종합버스터미널/
세종특별자치시,세종특별자치시,세종고속시외버스터미널,대한민국 세종특별자치시 대평동 갈매로 37-12,36.469368,127.2735097,https://transportation.asamaru.net/시외버스/시간표/세종고속시외버스터미널/
세종특별자치시,세종특별자치시,세종청사정류소(하행),대한민국 세종특별자치시 세종청사,36.505185,127.261319,https://transportation.asamaru.net/시외버스/시간표/세종청사정류소-하행/
세종특별자치시,세종특별자치시,정부세종청사정류장,대한민국 세종특별자치시 세종청사,36.505185,127.261319,https://transportation.asamaru.net/시외버스/시간표/세종청사정류소-상행/
세종특별자치시,세종특별자치시,조치원버스터미널,대한민국 세종특별자치시 조치원버스터미널,36.601972,127.302725,https://transportation.asamaru.net/시외버스/시간표/조치원공영버스터미널/
강원특별자치도,강릉시,강릉시외버스터미널,대한민국 강릉시 강릉시외버스터미널,37.754681,128.878431,https://transportation.asamaru.net/시외버스/시간표/강릉시외버스터미널/
강원특별자치도,강릉시,고단,대한민국 강원특별자치도 강릉시 왕산면 백두대간로 57-10,37.5206575,128.8492109,https://transportation.asamaru.net/시외버스/시간표/고단/
강원특별자치도,강릉시,삽당령,강릉시 삽당령,37.5777778,128.8533333,https://transportation.asamaru.net/시외버스/시간표/삽당령/
강원특별자치도,강릉시,송현리(강릉시),대한민국 강원특별자치도 강릉시 왕산면 송현리,37.5646054,128.8430087,https://transportation.asamaru.net/시외버스/시간표/송현리/
강원특별자치도,강릉시,왕산(강릉시),대한민국 강릉시 왕산,37.6697222,128.835,https://transportation.asamaru.net/시외버스/시간표/왕산/
강원특별자치도,강릉시,주문진시외버스종합터미널,대한민국 강원특별자치도 강릉시 주문진읍,37.8866831,128.7622907,https://transportation.asamaru.net/시외버스/시간표/주문진고속버스종합터미널/
강원특별자치도,고성군,간성터미널,대한민국 강원특별자치도 고성군 간성읍,38.33281729999999,128.3918557,https://transportation.asamaru.net/시외버스/시간표/간성시외버스터미널/
강원특별자치도,고성군,거진시외버스터미널,대한민국 고성군 거진읍 거진종합버스터미널,38.44596,128.453886,https://transportation.asamaru.net/시외버스/시간표/거진종합버스터미널/
강원특별자치도,고성군,대진시외버스터미널,대한민국 고성군 대진시외버스터미널,38.492467,128.427503,https://transportation.asamaru.net/시외버스/시간표/대진시외버스터미널/
강원특별자치도,동해시,동해시종합버스터미널,대한민국 동해시 동해시종합버스터미널,37.528713,129.104751,https://transportation.asamaru.net/시외버스/시간표/동해시종합버스터미널/
강원특별자치도,삼척시,도계버스터미널(삼척),대한민국 삼척시 도계버스터미널,37.224405,129.041932,https://transportation.asamaru.net/시외버스/시간표/도계버스터미널/
강원특별자치도,삼척시,삼척종합버스정류장,대한민국 강원특별자치도 삼척시,37.4440736,129.1679254,https://transportation.asamaru.net/시외버스/시간표/삼척종합버스터미널/
강원특별자치도,삼척시,삼척해변정류장,대한민국 강원특별자치도 삼척시 갈천동 수로부인길 542,37.4683103,129.1662641,https://transportation.asamaru.net/시외버스/시간표/삼척해변정류장/
강원특별자치도,삼척시,임원버스정류소,대한민국 삼척시 임원,37.2402029,129.3271191,https://transportation.asamaru.net/시외버스/시간표/임원종합버스터미널/
강원특별자치도,삼척시,장호정류장,대한민국 강원특별자치도 삼척시,37.4440736,129.1679254,https://transportation.asamaru.net/시외버스/시간표/장호시외버스정류장/
강원특별자치도,삼척시,호산버스정류장,대한민국 강원특별자치도 삼척시,37.4440736,129.1679254,https://transportation.asamaru.net/시외버스/시간표/호산시외버스터미널/
강원특별자치도,속초시,물치정류소,대한민국 양양군 물치정류소,38.153543,128.607701,https://transportation.asamaru.net/시외버스/시간표/물치정류소/
강원특별자치도,속초시,속초고속버스터미널,대한민국 강원특별자치도 속초시 동해대로 3988,38.1905088,128.5987419,https://transportation.asamaru.net/시외버스/시간표/속초고속버스터미널/
강원특별자치도,속초시,속초시외버스터미널,대한민국 강원특별자치도 속초시 장안로 16,38.21096110000001,128.591111,https://transportation.asamaru.net/시외버스/시간표/속초시외버스터미널/
강원특별자치도,양구군,대월,대한민국 강원특별자치도 양구군 국토정중앙면 춘양로2756번길 23,38.0726509,127.9950668,https://transportation.asamaru.net/시외버스/시간표/대월/
강원특별자치도,양구군,양구시외버스터미널,대한민국 양구군 양구시외버스터미널,38.107659,127.989335,https://transportation.asamaru.net/시외버스/시간표/양구시외버스터미널/
강원특별자치도,양구군,양구정중앙터미널,대한민국 강원특별자치도 양구군 국토정중앙면 정중앙로 610,38.1081155,128.0331903,https://transportation.asamaru.net/시외버스/시간표/양구정중앙터미널/
강원특별자치도,양양군,낙산버스터미널,대한민국 양양군 낙산,38.117647,128.628307,https://transportation.asamaru.net/시외버스/시간표/낙산종합버스터미널/
강원특별자치도,양양군,남애,양양군 남애항,37.9444676,128.7874214,https://transportation.asamaru.net/시외버스/시간표/남애/
강원특별자치도,양양군,손양,대한민국 강원특별자치도 양양군 손양면,38.0474161,128.652354,https://transportation.asamaru.net/시외버스/시간표/손양/
강원특별자치도,양양군,양양국제공항,대한민국 강원특별자치도 양양군 손양면 공항로 201 양양국제공항,38.058812,128.6629583,https://transportation.asamaru.net/시외버스/시간표/양양국제공항/
강원특별자치도,양양군,양양종합여객터미널,대한민국 강원특별자치도 양양군 양양읍 송암리 375-2,38.0850194,128.6297149,https://transportation.asamaru.net/시외버스/시간표/양양시외종합터미널/
강원특별자치도,양양군,오색버스터미널,대한민국 양양군 오색종합버스터미널,38.0771824,128.4536994,https://transportation.asamaru.net/시외버스/시간표/오색종합버스터미널/
강원특별자치도,양양군,인구,대한민국 강원특별자치도 양양군,38.07848329999999,128.616075,https://transportation.asamaru.net/시외버스/시간표/인구/
강원특별자치도,양양군,하조대정류소,대한민국 양양군 하조대정류소,38.01904,128.724397,https://transportation.asamaru.net/시외버스/시간표/하조대정류소/
강원특별자치도,영월군,영월시외버스정류장,대한민국 강원특별자치도 영월군 주천면 주천리,37.2723661,128.2701411,https://transportation.asamaru.net/시외버스/시간표/영월시외버스터미널/
강원특별자치도,원주시,귀래정류소,대한민국 원주시 귀래정류소,37.169781,127.884553,https://transportation.asamaru.net/시외버스/시간표/귀래정류소/
강원특별자치도,원주시,문막버스정류소,대한민국 원주시 문막정류소,37.319899,127.830978,https://transportation.asamaru.net/시외버스/시간표/문막정류소/
강원특별자치도,원주시,원주시외버스터미널,대한민국 원주시 원주시외버스터미널,37.344618,127.931431,https://transportation.asamaru.net/시외버스/시간표/원주시외버스터미널/
강원특별자치도,인제군,백담사입구정류소,대한민국 인제군 백담사입구,38.197376,128.342461,https://transportation.asamaru.net/시외버스/시간표/용대리정류소/
강원특별자치도,인제군,신남정류장,대한민국 강원특별자치도 인제군 남면 신남로 47-35,37.9703754,128.0797918,https://transportation.asamaru.net/시외버스/시간표/신남시외버스터미널/
강원특별자치도,인제군,원통버스터미널,대한민국 인제군 원통버스터미널,38.123206,128.20306,https://transportation.asamaru.net/시외버스/시간표/원통공용버스터미널/
강원특별자치도,인제군,인제터미널,대한민국 강원특별자치도 인제군 인제읍 비봉로 43,38.06592699999999,128.1750777,https://transportation.asamaru.net/시외버스/시간표/인제시외버스터미널/
강원특별자치도,인제군,현리시외버스터미널,대한민국 인제군 현리시외버스터미널,37.95536800000001,128.316994,https://transportation.asamaru.net/시외버스/시간표/현리버스터미널/
강원특별자치도,정선군,고한사북공영버스터미널,대한민국 정선군 고한읍 고한사북공영버스터미널,37.219722,128.834578,https://transportation.asamaru.net/시외버스/시간표/고한-사북공용버스터미널/
강원특별자치도,정선군,나전(정선),대한민국 강원특별자치도 정선군 북평면 북평8길 38,37.4498782,128.6685862,https://transportation.asamaru.net/시외버스/시간표/나전/
강원특별자치도,정선군,신동(정선),대한민국 강원특별자치도 정선군 신동읍,37.2378526,128.6480103,https://transportation.asamaru.net/시외버스/시간표/신동-정선/
강원특별자치도,정선군,여량,대한민국 강원특별자치도 정선군 여량면,37.4918196,128.7295731,https://transportation.asamaru.net/시외버스/시간표/여량/
강원특별자치도,정선군,임계시외버스터미널,대한민국 정선군 임계버스터미널,37.494527,128.850264,https://transportation.asamaru.net/시외버스/시간표/임계시외버스터미널/
강원특별자치도,정선군,정선공영버스터미널,대한민국 정선군 정선읍 정선공영버스터미널,37.378957,128.650469,https://transportation.asamaru.net/시외버스/시간표/정선시외버스터미널/
강원특별자치도,정선군,하늘공원,대한민국 강원특별자치도 정선군 여량면 남곡리 정선하늘공원,37.5046873,128.7943508,https://transportation.asamaru.net/시외버스/시간표/하늘공원/
강원특별자치도,철원군,동송시외버스공용터미널,대한민국 철원군 동송시외버스공용터미널,38.207776,127.217963,https://transportation.asamaru.net/시외버스/시간표/동송시외버스공용터미널/
강원특별자치도,철원군,신철원터미널,대한민국 강원특별자치도 철원군 갈말읍,38.1874918,127.3286961,https://transportation.asamaru.net/시외버스/시간표/신철원시외버스터미널/
강원특별자치도,철원군,와수터미널,대한민국 강원특별자치도 철원군 서면 와수로173번길 17,38.2388729,127.4373859,https://transportation.asamaru.net/시외버스/시간표/와수시외버스터미널/
강원특별자치도,춘천시,강촌버스승강장,대한민국 춘천시 강촌정류소,37.81829,127.63478,https://transportation.asamaru.net/시외버스/시간표/강촌정류소/
강원특별자치도,춘천시,군단앞(춘천),대한민국 강원특별자치도 춘천시 경춘로 강남동 2341 춘천,37.863184,127.718604,https://transportation.asamaru.net/시외버스/시간표/군단앞-춘천/
강원특별자치도,춘천시,남면(추곡),대한민국 강원특별자치도 춘천시 남면 추곡리 234-1 남면 추곡리 234-1번지 춘천시 강원도 KR 24468,37.7450161,127.6503973,https://transportation.asamaru.net/시외버스/시간표/남면-추곡/
강원특별자치도,춘천시,당림리,대한민국 강원특별자치도 춘천시 서면 당림리,37.8494636,127.6198383,https://transportation.asamaru.net/시외버스/시간표/당림리/
강원특별자치도,춘천시,동부아파트(춘천),대한민국 강원특별자치도 춘천시 우두동 1068-1,37.898905,127.7319461,https://transportation.asamaru.net/시외버스/시간표/동부아파트-춘천/
강원특별자치도,춘천시,두미르아파트정류장,대한민국 춘천시 두미르아파트,37.902365,127.7278025,https://transportation.asamaru.net/시외버스/시간표/두미르아파트/
강원특별자치도,춘천시,발산리정류장,대한민국 강원특별자치도 춘천시 신북읍 발산리,37.9789618,127.7670713,https://transportation.asamaru.net/시외버스/시간표/발산리/
강원특별자치도,춘천시,사북면사,대한민국 강원특별자치도 춘천시 사북면,38.0104503,127.6436532,https://transportation.asamaru.net/시외버스/시간표/사북면사/
강원특별자치도,춘천시,상호아파트,대한민국 강원특별자치도 춘천시 석사동 822번지 4단지아파트 퇴계주공뜨란채 402동 102호,37.8544334,127.74451,https://transportation.asamaru.net/시외버스/시간표/상호아파트/
강원특별자치도,춘천시,서천1리,대한민국 강원특별자치도 춘천시,37.8805061,127.7277611,https://transportation.asamaru.net/시외버스/시간표/서천1리/
강원특별자치도,춘천시,서천2리,대한민국 춘천시 서천2리,37.838035,127.532931,https://transportation.asamaru.net/시외버스/시간표/서천2리/
강원특별자치도,춘천시,소양로배터,대한민국 강원특별자치도 춘천시 소양로1가 101-1,37.8927309,127.7262658,https://transportation.asamaru.net/시외버스/시간표/소양로배터/
강원특별자치도,춘천시,신포중학교,대한민국 춘천시,38.02554629999999,127.6424191,https://transportation.asamaru.net/시외버스/시간표/신포중학교/
강원특별자치도,춘천시,안보리,대한민국 강원특별자치도 춘천시 서면 안보리,37.8531199,127.580611,https://transportation.asamaru.net/시외버스/시간표/안보리/
강원특별자치도,춘천시,어리고개정류장,대한민국 강원특별자치도 춘천시,37.8805061,127.7277611,https://transportation.asamaru.net/시외버스/시간표/어리고개정류소/
강원특별자치도,춘천시,원평리,대한민국 강원특별자치도 춘천시 사북면 원평리,38.0055527,127.6046846,https://transportation.asamaru.net/시외버스/시간표/원평리/
강원특별자치도,춘천시,전력IT단지,대한민국 강원특별자치도 춘천시,37.8805061,127.7277611,https://transportation.asamaru.net/시외버스/시간표/전력it단지/
강원특별자치도,춘천시,지촌정류소,대한민국 춘천시 지촌정류소,38.038778,127.643599,https://transportation.asamaru.net/시외버스/시간표/지촌정류소/
강원특별자치도,춘천시,춘천시외버스터미널,대한민국 강원특별자치도 춘천시 경춘로 강남동 2341 춘천,37.863184,127.718604,https://transportation.asamaru.net/시외버스/시간표/춘천시외버스터미널/
강원특별자치도,춘천시,춘천역,대한민국 춘천시 근화동 춘천,37.8846755,127.716753,https://transportation.asamaru.net/시외버스/시간표/춘천역/
강원특별자치도,춘천시,한샘고등학교,대한민국 강원특별자치도 춘천시 신북읍 신샘밭로 363-12,37.9273184,127.7506508,https://transportation.asamaru.net/시외버스/시간표/한샘고등학교/
강원특별자치도,춘천시,현대아파트(춘천),대한민국 강원특별자치도 춘천시 운교동,37.8772051,127.7341368,https://transportation.asamaru.net/시외버스/시간표/현대아파트/
강원특별자치도,춘천시,현지사,대한민국 강원특별자치도 춘천시 사북면 지촌리 95,38.045977,127.6458812,https://transportation.asamaru.net/시외버스/시간표/현지사/
강원특별자치도,태백시,태백버스터미널,대한민국 태백시 태백버스터미널,37.17693999999999,128.9855344,https://transportation.asamaru.net/시외버스/시간표/태백시외버스터미널/
강원특별자치도,평창군,미탄정류소,대한민국 평창군 미탄정류소,37.341812,128.498644,https://transportation.asamaru.net/시외버스/시간표/미탄정류소/
강원특별자치도,평창군,방림,대한민국 평창군 방림,37.4317855,128.4186795,https://transportation.asamaru.net/시외버스/시간표/방림/
강원특별자치도,평창군,방림삼거리정류소,평창군 방림삼거리,37.4314112,128.4185281,https://transportation.asamaru.net/시외버스/시간표/방림정류소/
강원특별자치도,평창군,운교정류소,대한민국 평창군 운교정류소,37.430586,128.284474,https://transportation.asamaru.net/시외버스/시간표/운교정류소/
강원특별자치도,평창군,장평시외버스터미널,대한민국 평창군 장평시외버스터미널,37.585873,128.414213,https://transportation.asamaru.net/시외버스/시간표/장평버스정류장/
강원특별자치도,평창군,진부시외버스터미널,대한민국 강원특별자치도 평창군 진부면 청송로 110 진부터미널,37.6363262,128.5584771,https://transportation.asamaru.net/시외버스/시간표/진부공용버스정류장/
강원특별자치도,평창군,평창버스터미널,대한민국 평창군 평창버스터미널,37.36644,128.393213,https://transportation.asamaru.net/시외버스/시간표/평창버스터미널/
강원특별자치도,평창군,평창휴게소,대한민국 강원특별자치도 평창군 평창읍 평창중앙로 193,37.3740566,128.3929489,https://transportation.asamaru.net/시외버스/시간표/평창휴게소/
강원특별자치도,평창군,횡계시외버스터미널,대한민국 평창군 횡계시외버스공용정류장,37.673158,128.704947,https://transportation.asamaru.net/시외버스/시간표/횡계시외버스공용정류장/
강원특별자치도,홍천군,내면정류소,대한민국 강원특별자치도 홍천군 내면,37.7947311,128.4083272,https://transportation.asamaru.net/시외버스/시간표/내면정류소/
강원특별자치도,홍천군,양덕원정류소,대한민국 강원특별자치도 홍천군 남면 양덕원리,37.615778,127.772086,https://transportation.asamaru.net/시외버스/시간표/금강고속양덕원영업소/
강원특별자치도,홍천군,홍천종합버스터미널,대한민국 강원특별자치도 홍천군 홍천읍 홍천로 301,37.6889523,127.8787104,https://transportation.asamaru.net/시외버스/시간표/홍천터미널/
강원특별자치도,화천군,간척,대한민국 강원특별자치도 화천군,38.1066561,127.7054478,https://transportation.asamaru.net/시외버스/시간표/간척/
강원특별자치도,화천군,간척사거리,화천군 간척사거리,38.0288547,127.8167631,https://transportation.asamaru.net/시외버스/시간표/간척사거리/
강원특별자치도,화천군,다목리버스터미널,대한민국 강원특별자치도 화천군 상서면 다목리,38.1759283,127.5417197,https://transportation.asamaru.net/시외버스/시간표/다목시외버스터미널/
강원특별자치도,화천군,달거리,대한민국 강원특별자치도 화천군,38.1066561,127.7054478,https://transportation.asamaru.net/시외버스/시간표/달거리/
강원특별자치도,화천군,사창리버스터미널,대한민국 강원특별자치도 화천군 사내면 사창리,38.0777327,127.519277,https://transportation.asamaru.net/시외버스/시간표/사창리터미널/
강원특별자치도,화천군,서오지리,대한민국 강원특별자치도 화천군 하남면 서오지리,38.061057,127.6288276,https://transportation.asamaru.net/시외버스/시간표/서오지리/
강원특별자치도,화천군,용호리(유촌리),대한민국 강원특별자치도 화천군 간동면 유촌리,38.0416544,127.7809315,https://transportation.asamaru.net/시외버스/시간표/용호리-유촌리/
강원특별자치도,화천군,원천정류소,대한민국 화천군 원천정류소,38.058166,127.667481,https://transportation.asamaru.net/시외버스/시간표/원천정류소/
강원특별자치도,화천군,화천공영버스터미널,대한민국 화천군 화천공영버스터미널,38.104466,127.70385,https://transportation.asamaru.net/시외버스/시간표/화천공영버스터미널/
강원특별자치도,횡성군,새말시외버스정류장,대한민국 강원특별자치도 횡성군,37.4883507,127.9854473,https://transportation.asamaru.net/시외버스/시간표/새말정류소-강원도-횡성군/
강원특별자치도,횡성군,안흥정류소(횡성군),대한민국 횡성군 안흥정류소,37.41254,128.157012,https://transportation.asamaru.net/시외버스/시간표/안흥정류소-강원도-횡성군/
강원특별자치도,횡성군,횡성시외버스터미널,대한민국 횡성군 횡성시외버스터미널,37.486822,127.984776,https://transportation.asamaru.net/시외버스/시간표/횡성시외버스터미널/
충청북도,괴산군,괴산시외버스터미널,대한민국 괴산군 시외버스터미널,36.80783900000001,127.793741,https://transportation.asamaru.net/시외버스/시간표/괴산시외버스공용터미널/
충청북도,단양군,구인사정류소,대한민국 단양군 구인사공용정류장,37.036475,128.480982,https://transportation.asamaru.net/시외버스/시간표/구인사정류소/
충청북도,단양군,단양상진터미널,대한민국 단양군 단양역,36.973249,128.343616,https://transportation.asamaru.net/시외버스/시간표/단양상진터미널/
충청북도,단양군,단양시외버스공영터미널,대한민국 충청북도 단양군 단양읍 별곡리 569-1 단양시외버스공영터미널,36.9850755,128.3707203,https://transportation.asamaru.net/시외버스/시간표/단양시외버스터미널/
충청북도,단양군,매포정류소,대한민국 단양군 매포정류소,37.032563,128.304126,https://transportation.asamaru.net/시외버스/시간표/매포정류소/
충청북도,단양군,사평리,대한민국 충청북도 단양군 가곡면 사평리,37.0182673,128.4001563,https://transportation.asamaru.net/시외버스/시간표/사평리/
충청북도,단양군,영춘공동정류소,대한민국 단양군 단양온천(회차),37.07679600000001,128.484543,https://transportation.asamaru.net/시외버스/시간표/영춘공동정류소/
충청북도,보은군,보은시외버스공용정류장,대한민국 충청북도 보은군,36.4887681,127.7177059,https://transportation.asamaru.net/시외버스/시간표/보은시외버스터미널/
충청북도,보은군,속리산터미널,대한민국 보은군 속리산터미널,36.527821,127.819686,https://transportation.asamaru.net/시외버스/시간표/속리산터미널/
충청북도,영동군,(구)영동,대한민국 영동군 영동,36.172082,127.786222,https://transportation.asamaru.net/시외버스/시간표/구-영동/
충청북도,영동군,영동(시장),대한민국 영동군,36.1748289,127.7755424,https://transportation.asamaru.net/시외버스/시간표/영동-시장/
충청북도,영동군,영동시외버스정류장,대한민국 영동군 영동,36.172082,127.786222,https://transportation.asamaru.net/시외버스/시간표/영동시외버스정류장/
충청북도,옥천군,옥천시외버스공영정류소,대한민국 옥천군 옥천시외버스공영정류소,36.306968,127.564063,https://transportation.asamaru.net/시외버스/시간표/옥천시외버스공용정류소/
충청북도,음성군,감곡공용정류장,대한민국 음성군 감곡공용정류장,37.11734800000001,127.642484,https://transportation.asamaru.net/시외버스/시간표/감곡시외터미널/
충청북도,음성군,금왕임시정류소,대한민국 충청북도 음성군 금왕읍 무극리 74-9,36.9903126,127.5953449,https://transportation.asamaru.net/시외버스/시간표/무극공용시외버스터미널/
충청북도,음성군,대소버스정류장,대한민국 음성군 대소버스공동정류장,36.969564,127.48254,https://transportation.asamaru.net/시외버스/시간표/대소버스공동정류장/
충청북도,음성군,삼성버스터미널,대한민국 음성군 삼성시외버스터미널,37.020536,127.500142,https://transportation.asamaru.net/시외버스/시간표/삼성시외버스터미널/
충청북도,음성군,음성공용버스터미널,대한민국 음성군 음성공용버스터미널,36.934591,127.689803,https://transportation.asamaru.net/시외버스/시간표/음성공용버스터미널/
충청북도,음성군,충북혁신도시공용터미널,대한민국 음성군 혁신도시공용터미널,36.90570900000001,127.54708,https://transportation.asamaru.net/시외버스/시간표/혁신도시공용터미널/
충청북도,제천시,제천버스터미널,대한민국 제천시 제천버스터미널,37.142111,128.210865,https://transportation.asamaru.net/시외버스/시간표/제천버스터미널/
충청북도,증평군,증평시외버스터미널,대한민국 충청북도 증평군 증평읍 광장로 89 증평시외버스터미널,36.7856938,127.5822974,https://transportation.asamaru.net/시외버스/시간표/증평시외버스터미널/
충청북도,진천군,광혜원터미널,대한민국 진천군 광혜원터미널,36.990246,127.444833,https://transportation.asamaru.net/시외버스/시간표/광혜원버스공동정류소/
충청북도,진천군,덕산진천정류소,대한민국 진천군 덕산진천정류소,36.912398,127.506185,https://transportation.asamaru.net/시외버스/시간표/덕산진천정류소/
충청북도,진천군,진천종합터미널,대한민국 진천군 진천종합터미널,36.86041,127.439117,https://transportation.asamaru.net/시외버스/시간표/진천종합버스터미널/
충청북도,청주시 상당구,미원정류소 상행,대한민국 청주시 미원터미널,36.6374065,127.657725,https://transportation.asamaru.net/시외버스/시간표/미원정류소/
충청북도,청주시 서원구,남부정류장,대한민국 충청북도 청주시 서원구 분평동 329-7,36.6084187,127.4796445,https://transportation.asamaru.net/시외버스/시간표/남청주정류소/
충청북도,청주시 서원구,사창정류장,대한민국 충청북도 청주시 서원구 사창동,36.6346142,127.4628659,https://transportation.asamaru.net/시외버스/시간표/청주사창정류소/
충청북도,청주시 청원구,율량정류소,대한민국 충청북도 청주시 청원구 율량동,36.6642811,127.5076193,https://transportation.asamaru.net/시외버스/시간표/율량성모병원/
충청북도,청주시 청원구,청주공항정류소,대한민국 청주시 청주공항정류소,36.722212,127.495412,https://transportation.asamaru.net/시외버스/시간표/청주공항정류소/
충청북도,청주시 청원구,청주대정류소,대한민국 청주시 청주여객북부정류소,36.650519,127.486986,https://transportation.asamaru.net/시외버스/시간표/청주여객북부정류소/
충청북도,청주시 청원구,청주북부터미널(오창),대한민국 청주시 청주북부터미널,36.711404,127.426991,https://transportation.asamaru.net/시외버스/시간표/오창시외버스정류소/
충청북도,청주시 흥덕구,오송역,대한민국 충청북도 청주시 흥덕구 오송읍,36.6292864,127.3194743,https://transportation.asamaru.net/시외버스/시간표/오송역/
충청북도,청주시 흥덕구,오송역(오스코),대한민국 충청북도 청주시 흥덕구 오송읍 만수리 275-7,36.6272095,127.3342529,https://transportation.asamaru.net/시외버스/시간표/오송역-오스코/
충청북도,청주시 흥덕구,청주시외버스터미널,대한민국 청주시 청주시외버스터미널,36.625359,127.431719,https://transportation.asamaru.net/시외버스/시간표/청주시외버스터미널/
충청북도,충주시,건국터미널,대한민국 충청북도 충주시 단월동 312-3,36.9513116,127.9045275,https://transportation.asamaru.net/시외버스/시간표/건국터미널/
충청북도,충주시,교통대시외버스정류소,대한민국 충청북도 충주시 노은면 문성리 63-1,37.0379007,127.7541064,https://transportation.asamaru.net/시외버스/시간표/한국교통대정류소/
충청북도,충주시,목계정류소,대한민국 충주시 목계정류소,37.079265,127.888965,https://transportation.asamaru.net/시외버스/시간표/목계정류소/
충청북도,충주시,목행,대한민국 충주시 목행역,37.004217,127.916591,https://transportation.asamaru.net/시외버스/시간표/목행/
충청북도,충주시,본리정류소,대한민국 충청북도 충주시 대소원면 본리,36.985772,127.8314431,https://transportation.asamaru.net/시외버스/시간표/본리정류소/
충청북도,충주시,수안보시외버스정류소,대한민국 충청북도 충주시 수안보면,36.8442521,128.0263085,https://transportation.asamaru.net/시외버스/시간표/수안보시외버스정류장/
충청북도,충주시,엄정정류소,대한민국 충주시 엄정정류소,37.086027,127.914691,https://transportation.asamaru.net/시외버스/시간표/엄정정류소/
충청북도,충주시,주덕버스터미널,대한민국 충청북도 충주시 주덕읍,36.9862173,127.7831509,https://transportation.asamaru.net/시외버스/시간표/주덕정류소/
충청북도,충주시,충주공용버스터미널,대한민국 충청북도 충주시 칠금동 849 충주공용버스터미널,36.9819821,127.9145554,https://transportation.asamaru.net/시외버스/시간표/충주공용버스터미널/
충청남도,계룡시,계룡(금암)정류소,대한민국 계룡시 계룡금암정류소,36.272402,127.252882,https://transportation.asamaru.net/시외버스/시간표/계룡금암정류소/
충청남도,계룡시,신도안정류소,대한민국 계룡시 신도안정류소,36.297245,127.244886,https://transportation.asamaru.net/시외버스/시간표/신도안정류소/
충청남도,계룡시,엄사정류소,대한민국 계룡시 신도안정류소,36.297245,127.244886,https://transportation.asamaru.net/시외버스/시간표/엄사터미널/
충청남도,공주시,공주종합버스터미널,대한민국 공주시 공주종합버스터미널,36.468449,127.134868,https://transportation.asamaru.net/시외버스/시간표/공주종합버스터미널/
충청남도,공주시,광정정류소,대한민국 공주시 정안면,36.611111,127.121472,https://transportation.asamaru.net/시외버스/시간표/광정정류소/
충청남도,공주시,동학사삼거리정류소,대한민국 충청남도 공주시 반포면 동학사1로 462,36.3533056,127.2200633,https://transportation.asamaru.net/시외버스/시간표/동학사삼거리터미널/
충청남도,공주시,삼흥고속,대한민국 충청남도 공주시 신관동,36.4719758,127.1326234,https://transportation.asamaru.net/시외버스/시간표/삼흥고속/
충청남도,공주시,유구터미널,대한민국 공주시 유구터미널,36.55058,126.952244,https://transportation.asamaru.net/시외버스/시간표/유구공용버스터미널/
충청남도,금산군,금산터미널,대한민국 금산군 금산터미널,36.110517,127.49111,https://transportation.asamaru.net/시외버스/시간표/금산시외버스터미널/
충청남도,금산군,인삼랜드휴게소(통영방향)고속버스환승정류소,대한민국 금산군 인삼랜드휴게소(통영방향)고속버스환승정류소,36.152801,127.496393,https://transportation.asamaru.net/시외버스/시간표/인삼랜드휴게소-통영방향-고속버스환승정류소/
충청남도,금산군,인삼랜드휴게소(하남방향)고속버스환승정류소,대한민국 금산군 인삼랜드휴게소(하남방향)고속버스환승정류소,36.15461,127.497418,https://transportation.asamaru.net/시외버스/시간표/인삼랜드휴게소-하남방향-고속버스환승정류소/
충청남도,논산시,논산버스터미널,대한민국 충청남도 논산시 취암동 609-1 논산버스터미널,36.2029571,127.088157,https://transportation.asamaru.net/시외버스/시간표/논산시외버스공용터미널/
충청남도,논산시,연무대시외버스정류장,대한민국 논산시 연무읍 연무대시외버스정류장,36.133988,127.099581,https://transportation.asamaru.net/시외버스/시간표/연무대시외버스정류장/
충청남도,논산시,황화,대한민국 충청남도 논산시,36.2026095,127.0866369,https://transportation.asamaru.net/시외버스/시간표/황화/
충청남도,당진시,기지시버스정류장,대한민국 당진시 기지시시외버스정류장,36.9120695,126.689526,https://transportation.asamaru.net/시외버스/시간표/기지시정류소/
충청남도,당진시,당진버스터미널,대한민국 당진시 당진종합버스터미널,36.9021405,126.645837,https://transportation.asamaru.net/시외버스/시간표/당진버스터미널/
충청남도,당진시,삽교천시외버스터미널,대한민국 당진시 신평면 삽교천시외버스터미널,36.888433,126.824803,https://transportation.asamaru.net/시외버스/시간표/삽교천시외버스터미널/
충청남도,당진시,송악신도시,대한민국 당진시 송악신도시입구,36.94474,126.782344,https://transportation.asamaru.net/시외버스/시간표/송악신도시/
충청남도,당진시,신평고속버스정류장,대한민국 당진시 신평고속버스정류장,36.879066,126.751868,https://transportation.asamaru.net/시외버스/시간표/신평버스터미널/
충청남도,당진시,합덕버스터미널,대한민국 당진시 합덕버스터미널,36.81017,126.77567,https://transportation.asamaru.net/시외버스/시간표/합덕버스터미널/
충청남도,보령시,보령종합터미널,대한민국 보령시 보령종합터미널,36.342695,126.59005,https://transportation.asamaru.net/시외버스/시간표/보령종합터미널/
충청남도,부여군,부여시외버스터미널,대한민국 부여군 부여시외버스터미널,36.28041899999999,126.91032,https://transportation.asamaru.net/시외버스/시간표/부여시외버스터미널/
충청남도,부여군,한국전통문화대,대한민국 충청남도 부여군 규암면 백제문로 367,36.308186,126.897317,https://transportation.asamaru.net/시외버스/시간표/한국전통문화대/
충청남도,서산시,고북정류소,대한민국 서산시 고북정류소,36.667667,126.532877,https://transportation.asamaru.net/시외버스/시간표/고북정류소/
충청남도,서산시,대산(서산시),대한민국 충청남도 서산시 대산읍,36.9665462,126.421311,https://transportation.asamaru.net/시외버스/시간표/대산/
충청남도,서산시,서산공용버스터미널,대한민국 서산시 서산공용버스터미널,36.781726,126.458393,https://transportation.asamaru.net/시외버스/시간표/서산공용버스터미널/
충청남도,서산시,성연정류장,대한민국 충청남도 서산시,36.7833804,126.4522202,https://transportation.asamaru.net/시외버스/시간표/성연/
충청남도,서산시,운산정류소,대한민국 서산시 운산정류소,36.811206,126.583363,https://transportation.asamaru.net/시외버스/시간표/운산정류소/
충청남도,서산시,음암정류소,대한민국 서산시 음암정류소,36.799658,126.518642,https://transportation.asamaru.net/시외버스/시간표/음암정류소/
충청남도,서산시,한서대정류소,대한민국 서산시 한서대정류소,36.690207,126.576131,https://transportation.asamaru.net/시외버스/시간표/한서대정류소/
충청남도,서산시,해미정류소,대한민국 서산시 해미정류소,36.71244799999999,126.544203,https://transportation.asamaru.net/시외버스/시간표/해미정류소/
충청남도,서천군,서천버스정류장,대한민국 서천군 서천버스정류장,36.075365,126.695994,https://transportation.asamaru.net/시외버스/시간표/서천시외버스터미널/
충청남도,서천군,장항버스정류장,대한민국 충청남도 서천군 장항읍,36.0212245,126.6907296,https://transportation.asamaru.net/시외버스/시간표/장항버스공용정류장/
충청남도,아산시,밀두리,대한민국 충청남도 아산시 인주면 밀두리,36.8685866,126.8858285,https://transportation.asamaru.net/시외버스/시간표/밀두리/
충청남도,아산시,배방환승정류장,대한민국 아산시 배방환승정류장,36.77570499999999,127.063855,https://transportation.asamaru.net/시외버스/시간표/배방환승정류장/
충청남도,아산시,신창정류소,대한민국 아산시 신창정류소,36.77762999999999,126.934905,https://transportation.asamaru.net/시외버스/시간표/신창정류소/
충청남도,아산시,아산서부봉강교정류소,대한민국 아산시 봉강교정류소,36.774912,127.073095,https://transportation.asamaru.net/시외버스/시간표/봉강교정류소/
충청남도,아산시,아산시외버스터미널,대한민국 아산시 아산시외버스터미널,36.784519,127.01592,https://transportation.asamaru.net/시외버스/시간표/아산시외버스터미널/
충청남도,아산시,천안아산역KTX정류소,대한민국 아산시 천안아산,36.7946071,127.1045608,https://transportation.asamaru.net/시외버스/시간표/아산ktx정류소/
충청남도,예산군,내포신도시고속시외버스정류소,대한민국 내포신도시고속.시외버스정류소,36.658133,126.6706295,https://transportation.asamaru.net/시외버스/시간표/내포신도시고속시외버스정류소/
충청남도,예산군,신례원정류소,대한민국 예산군 신례원정류소,36.727054,126.845739,https://transportation.asamaru.net/시외버스/시간표/신례원정류소/
충청남도,예산군,신양정류소,대한민국 예산군 신양정류소,36.603007,126.869038,https://transportation.asamaru.net/시외버스/시간표/신양정류소/
충청남도,예산군,예산종합터미널,대한민국 예산군 예산종합터미널,36.6945,126.832361,https://transportation.asamaru.net/시외버스/시간표/예산종합터미널/
충청남도,예산군,임성동,대한민국 충청남도 예산군,36.6862783,126.8321486,https://transportation.asamaru.net/시외버스/시간표/기본11/
충청남도,천안시 동남구,천안시외버스터미널,대한민국 충청남도 천안시 동남구 만남로 43,36.819908,127.1565357,https://transportation.asamaru.net/시외버스/시간표/천안종합버스터미널/
충청남도,천안시 동남구,코리아텍정류장,대한민국 천안시 코리아텍,36.767669,127.283552,https://transportation.asamaru.net/시외버스/시간표/기술대/
충청남도,천안시 서북구,성환버스터미널,대한민국 천안시 성환버스터미널,36.91701,127.132684,https://transportation.asamaru.net/시외버스/시간표/성환버스터미널/
충청남도,천안시 서북구,쌍용동정류장,대한민국 충청남도 천안시 서북구 쌍용동,36.8006931,127.1224079,https://transportation.asamaru.net/시외버스/시간표/쌍용동/
충청남도,청양군,운곡정류소,대한민국 청양군 운곡정류소,36.522312,126.844221,https://transportation.asamaru.net/시외버스/시간표/운곡정류소/
충청남도,청양군,청양시외버스터미널,대한민국 청양군 청양시외버스터미널,36.4521895,126.8034245,https://transportation.asamaru.net/시외버스/시간표/청양시외버스터미널/
충청남도,청양군,화성정류소,대한민국 청양군 화성정류소,36.427704,126.714971,https://transportation.asamaru.net/시외버스/시간표/화성면-청양군/
충청남도,태안군,만리포시외버스정류소,대한민국 태안군 태안읍 남문리 152-5번지 태안군 충청남도 KR,36.7514171,126.2980269,https://transportation.asamaru.net/시외버스/시간표/만리포정류소/
충청남도,태안군,안면도버스정류소,태안군 안면도,36.5795048,126.3293372,https://transportation.asamaru.net/시외버스/시간표/안면버스터미널/
충청남도,태안군,창기리정류소,대한민국 태안군 창기리정류소,36.576209,126.33329,https://transportation.asamaru.net/시외버스/시간표/창기리정류소/
충청남도,태안군,태안공영버스터미널,대한민국 충청남도 태안군 태안읍 동백로 304,36.7480206,126.3031448,https://transportation.asamaru.net/시외버스/시간표/태안공용버스터미널/
충청남도,태안군,태안남면정류소,대한민국 태안군 남면정류소,36.674146,126.296647,https://transportation.asamaru.net/시외버스/시간표/남면정류소/
충청남도,홍성군,갈산(홍성군),대한민국 충청남도 홍성군 갈산면 상촌리 70,36.6025892,126.5542037,https://transportation.asamaru.net/시외버스/시간표/갈산/
충청남도,홍성군,광천버스터미널,대한민국 홍성군 광천버스터미널,36.498995,126.623908,https://transportation.asamaru.net/시외버스/시간표/광천시외버스터미널/
충청남도,홍성군,홍성종합터미널,대한민국 홍성군 홍성종합터미널,36.600984,126.676092,https://transportation.asamaru.net/시외버스/시간표/홍성종합터미널/
경상북도,경산시,경산시외버스정류장,대한민국 경산시 중방동 경산시외버스정류장(세명병원),35.8255026,128.7370367,https://transportation.asamaru.net/시외버스/시간표/경산시외버스터미널/
경상북도,경산시,대구대정류소,대한민국 경상북도 경산시 진량읍 대구대로 201,35.9021687,128.849098,https://transportation.asamaru.net/시외버스/시간표/대구대학교정류소/
경상북도,경산시,영남대시외버스정류장,대한민국 경산시 영남대시외버스정류장,35.836968,128.75437,https://transportation.asamaru.net/시외버스/시간표/영남대시외버스정류장/
경상북도,경산시,하양정류소,대한민국 경산시 갈지리정류소,35.768469,128.838559,https://transportation.asamaru.net/시외버스/시간표/하양시외버스터미널/
경상북도,경주시,경주고속터미널,대한민국 경상북도 경주시 노서동 243-5 경주고속터미널,35.83866769999999,129.2042655,https://transportation.asamaru.net/시외버스/시간표/경주고속버스터미널/
경상북도,경주시,경주시외버스터미널,대한민국 경상북도 경주시 노서동 160-2 경주시외버스터미널,35.839782,129.202485,https://transportation.asamaru.net/시외버스/시간표/경주시외버스터미널/
경상북도,경주시,안강동부정류장,대한민국 경주시 동부정류장,35.9933335,129.2284665,https://transportation.asamaru.net/시외버스/시간표/안강동부정류소/
경상북도,고령군,고령시외버스정류장,대한민국 고령군 고령시외버스정류장,35.73002100000001,128.270941,https://transportation.asamaru.net/시외버스/시간표/고령시외버스정류장/
경상북도,구미시,구미공단정류소,대한민국 경상북도 구미시 수출대로 128,36.1107811,128.3784256,https://transportation.asamaru.net/시외버스/시간표/공단정류소/
경상북도,구미시,구미복지정류소,대한민국 구미시 원평동 60-60번지 구미시 경상북도 KR,36.1305517,128.3266374,https://transportation.asamaru.net/시외버스/시간표/주공터미널/
경상북도,구미시,구미종합터미널,대한민국 경상북도 구미시 원평동 송원동로 72 구미종합터미널,36.1227303,128.3520357,https://transportation.asamaru.net/시외버스/시간표/구미종합버스터미널/
경상북도,김천시,김천구미역정류소,대한민국 김천시 김천(구미)역,36.1134391,128.181018,https://transportation.asamaru.net/시외버스/시간표/김천구미역터미널/
경상북도,김천시,김천부곡공항버스정류장,대한민국 경상북도 김천시 부곡맛고을1길 147,36.1248746,128.0950591,https://transportation.asamaru.net/시외버스/시간표/김천부곡한남터미널/
경상북도,김천시,김천시외버스정류장,대한민국 김천시 김천시외버스터미널(종점),36.123815,128.117878,https://transportation.asamaru.net/시외버스/시간표/김천공용버스터미널/
경상북도,문경시,문경버스터미널,대한민국 문경시 문경버스터미널,36.733808,128.107524,https://transportation.asamaru.net/시외버스/시간표/문경공용버스정류장/
경상북도,문경시,점촌터미널,대한민국 문경시 점촌터미널,36.585994,128.192647,https://transportation.asamaru.net/시외버스/시간표/점촌시외고속버스터미널/
경상북도,봉화군,법전정류소,대한민국 봉화군 법전,36.91079,128.876117,https://transportation.asamaru.net/시외버스/시간표/법전버스정류소/
경상북도,봉화군,봉화공용정류장,대한민국 봉화군 봉화우체국,36.89087,128.736731,https://transportation.asamaru.net/시외버스/시간표/봉화공용버스정류장/
경상북도,봉화군,상운,대한민국 경상북도 봉화군,36.934974,128.9128395,https://transportation.asamaru.net/시외버스/시간표/상운/
경상북도,봉화군,춘양버스터미널,대한민국 봉화군 춘양시외버스터미널,36.935124,128.913467,https://transportation.asamaru.net/시외버스/시간표/춘양시외버스터미널/
경상북도,상주시,경북대상주캠퍼스정류소,대한민국 경상북도 상주시 경상대로 2555,36.3768632,128.1472852,https://transportation.asamaru.net/시외버스/시간표/경북대상주캠퍼스정류소-승차/
경상북도,상주시,상주터미널,대한민국 상주시 상주터미널,36.419097,128.152256,https://transportation.asamaru.net/시외버스/시간표/상주종합버스터미널/
경상북도,상주시,양정정류소(상주시),대한민국 상주시 양정정류소,36.51121699999999,128.163635,https://transportation.asamaru.net/시외버스/시간표/양정정류소/
경상북도,상주시,함창버스정류장,대한민국 상주시 함창읍 함창버스정류장,36.568347,128.175676,https://transportation.asamaru.net/시외버스/시간표/함창버스정류장/
경상북도,성주군,임시성주버스정류장,대한민국 성주군 임시성주버스정류장,35.912517,128.283061,https://transportation.asamaru.net/시외버스/시간표/성주버스정류장/
경상북도,안동시,경북도청버스정류장,대한민국 안동시 경북도청시외버스정류장,36.569759,128.5021832,https://transportation.asamaru.net/시외버스/시간표/경북도청시외버스정류장/
경상북도,안동시,안동대,대한민국 경상북도 안동시 경동로 1375,36.5419567,128.7969108,https://transportation.asamaru.net/시외버스/시간표/안동대/
경상북도,안동시,안동초교정류소,대한민국 경상북도 안동시 풍산읍 하리리 247,36.5769342,128.5741494,https://transportation.asamaru.net/시외버스/시간표/안동초교터미널/
경상북도,안동시,안동터미널,대한민국 경상북도 안동시 송하동 안동버스터미널,36.574532,128.6756595,https://transportation.asamaru.net/시외버스/시간표/안동터미널/
경상북도,안동시,옹천정류소,대한민국 경상북도 안동시 북후면 옹천리 548-1 옹천정류소,36.686486,128.7018565,https://transportation.asamaru.net/시외버스/시간표/옹천정류소/
경상북도,안동시,용상정류소,대한민국 경상북도 안동시 전거리길 57,36.5600173,128.7440762,https://transportation.asamaru.net/시외버스/시간표/용상터미널/
경상북도,안동시,임동정류소,대한민국 경상북도 안동시 길안면 천지리 778-1 길안정류소,36.4577687,128.8925783,https://transportation.asamaru.net/시외버스/시간표/임동정류소/
경상북도,영덕군,강구버스터미널,대한민국 영덕군 강구버스터미널,36.358733,129.379406,https://transportation.asamaru.net/시외버스/시간표/강구버스터미널/
경상북도,영덕군,영덕터미널,대한민국 영덕군 영덕읍 영덕터미널,36.414523,129.372565,https://transportation.asamaru.net/시외버스/시간표/영덕터미널/
경상북도,영덕군,영해버스터미널,대한민국 영덕군 영해버스터미널,36.53876899999999,129.4041845,https://transportation.asamaru.net/시외버스/시간표/영해버스터미널/
경상북도,영양군,영양버스정류장,대한민국 영양군 영양버스정류장,36.66175,129.114253,https://transportation.asamaru.net/시외버스/시간표/영양버스정류장/
경상북도,영양군,입암정류장,대한민국 영양군 입암정류장,36.594479,129.089906,https://transportation.asamaru.net/시외버스/시간표/입암정류소/
경상북도,영주시,영주종합터미널,대한민국 영주시 영주종합터미널,36.82708,128.605781,https://transportation.asamaru.net/시외버스/시간표/영주종합터미널/
경상북도,영주시,풍기IC정류소,영주시 풍기IC,36.8523724,128.5307289,https://transportation.asamaru.net/시외버스/시간표/풍기ic시외버스정류장/
경상북도,영천시,동영천IC정류장,대한민국 영천시 동영천IC정류장,35.986151,128.963841,https://transportation.asamaru.net/시외버스/시간표/동영천ic정류장/
경상북도,영천시,영천버스터미널,대한민국 영천시 영천버스터미널,35.960702,128.9276785,https://transportation.asamaru.net/시외버스/시간표/영천시외버스터미널/
경상북도,예천군,예천삼거리정류소,대한민국 예천군 삼거리,36.701176,128.504447,https://transportation.asamaru.net/시외버스/시간표/남본삼거리정류소/
경상북도,예천군,예천시외버스터미널,대한민국 예천군 예천시외버스터미널,36.648393,128.443173,https://transportation.asamaru.net/시외버스/시간표/예천시외버스정류장/
경상북도,예천군,용궁정류소,대한민국 예천군 용궁정류소,36.607365,128.281679,https://transportation.asamaru.net/시외버스/시간표/용궁정류소/
경상북도,울진군,금강송시외버스정류장,대한민국 경상북도 울진군 금강송면 소광리 산268,37.0259639,129.210991,https://transportation.asamaru.net/시외버스/시간표/금강송/
경상북도,울진군,부구터미널,대한민국 울진군 부구터미널,37.103335,129.374286,https://transportation.asamaru.net/시외버스/시간표/부구터미널/
경상북도,울진군,온정종합터미널,대한민국 울진군 온정종합터미널,36.72084,129.344493,https://transportation.asamaru.net/시외버스/시간표/온정종합터미널/
경상북도,울진군,울진종합버스터미널,대한민국 울진군 울진종합버스터미널,36.9836976,129.3968967,https://transportation.asamaru.net/시외버스/시간표/울진종합버스터미널/
경상북도,울진군,죽변시외버스정류장,대한민국 경상북도 울진군 죽변면,37.053839,129.3944912,https://transportation.asamaru.net/시외버스/시간표/죽변정류소/
경상북도,울진군,평해버스정류장,대한민국 울진군 평해버스정류장,36.725747,129.441109,https://transportation.asamaru.net/시외버스/시간표/평해버스정류장/
경상북도,울진군,후포터미널,대한민국 울진군 후포터미널,36.68258,129.442138,https://transportation.asamaru.net/시외버스/시간표/후포공용시외버스터미널/
경상북도,의성군,도리원버스터미널,대한민국 의성군 도리원버스터미널,36.297905,128.579329,https://transportation.asamaru.net/시외버스/시간표/도리원시외버스정류장/
경상북도,의성군,의성시외버스터미널,대한민국 의성군 의성읍 의성시외버스터미널,36.355534,128.693906,https://transportation.asamaru.net/시외버스/시간표/의성시외버스터미널/
경상북도,청송군,안덕버스터미널,대한민국 청송군 안덕버스터미널,36.289049,128.958557,https://transportation.asamaru.net/시외버스/시간표/안덕정류소/
경상북도,청송군,주왕산버스터미널,대한민국 청송군 주왕산시외버스터미널,36.39071,129.141828,https://transportation.asamaru.net/시외버스/시간표/주왕산시외버스터미널/
경상북도,청송군,진보버스터미널,대한민국 청송군 진보버스터미널,36.528777,129.042966,https://transportation.asamaru.net/시외버스/시간표/진보시외버스터미널/
경상북도,청송군,청송버스터미널,대한민국 청송군 청송터미널,36.437524,129.050856,https://transportation.asamaru.net/시외버스/시간표/청송시외버스터미널/
경상북도,포항시 남구,포항터미널,대한민국 경상북도 포항시 남구 중흥로 85,36.0134304,129.3496776,https://transportation.asamaru.net/시외버스/시간표/포항터미널/
경상남도,거제시,거제(한화오션남문),대한민국 경상남도 거제시 아주동 1-10,34.8675237,128.6942959,https://transportation.asamaru.net/시외버스/시간표/거제-한화오션남문/
경상남도,거제시,고현버스터미널,대한민국 거제시 고현버스터미널,34.8908245,128.6243045,https://transportation.asamaru.net/시외버스/시간표/고현버스터미널/
경상남도,거제시,옥포정류소,대한민국 경상남도 거제시 옥포대첩로2길 64,34.8886137,128.69235,https://transportation.asamaru.net/시외버스/시간표/옥포터미널/
경상남도,거제시,장승포시외(능포동),대한민국 거제시 능포동 474번지 거제시 경상남도 KR,34.8753275,128.7311117,https://transportation.asamaru.net/시외버스/시간표/장승포시외/
경상남도,거제시,장승포시외버스정류장,대한민국 거제시 장승포시외버스터미널,34.875461,128.730891,https://transportation.asamaru.net/시외버스/시간표/장승포시외버스터미널/
경상남도,거창군,가조정류소,대한민국 거창군 가조정류소,35.710135,128.014751,https://transportation.asamaru.net/시외버스/시간표/가조정류소/
경상남도,거창군,거창버스터미널,대한민국 거창군 거창버스터미널,35.686963,127.921984,https://transportation.asamaru.net/시외버스/시간표/거창시외버스터미널/
경상남도,고성군,고성여객자동차터미널,대한민국 고성군 고성여객자동차터미널,34.982144,128.327195,https://transportation.asamaru.net/시외버스/시간표/고성여객자동차터미널/
경상남도,고성군,배둔시외버스터미널,대한민국 고성군 배둔시외버스터미널,35.055834,128.366592,https://transportation.asamaru.net/시외버스/시간표/배둔시외버스터미널/
경상남도,김해시,김해여객터미널,대한민국 경상남도 김해시 김해대로 2232,35.2278843,128.8733746,https://transportation.asamaru.net/시외버스/시간표/김해여객터미널/
경상남도,김해시,김해장유고속버스환승정류장,대한민국 경상남도 김해시 장유면 금관대로599번길 17,35.2037943,128.8139882,https://transportation.asamaru.net/시외버스/시간표/장유고속버스환승정류장/
경상남도,김해시,장유시외버스정류소,대한민국 경상남도 김해시 장유면 금관대로599번길 17,35.2037943,128.8139882,https://transportation.asamaru.net/시외버스/시간표/장유정류소/
경상남도,남해군,남해공용터미널,대한민국 남해군 남해공용터미널,34.841424,127.898221,https://transportation.asamaru.net/시외버스/시간표/남해시외버스터미널/
경상남도,남해군,남해사거리,대한민국 경상남도 남해군,34.8333771,127.899794,https://transportation.asamaru.net/시외버스/시간표/남해사거리/
경상남도,밀양시,밀양버스터미널,대한민국 경상남도 밀양시 내이동 1187-1 밀양시외버스터미널,35.498814,128.743689,https://transportation.asamaru.net/시외버스/시간표/밀양시외버스터미널/
경상남도,사천시,곤양공용터미널,대한민국 사천시 곤양공용터미널,35.057405,127.96092,https://transportation.asamaru.net/시외버스/시간표/곤양공용터미널/
경상남도,사천시,사천공항,대한민국 경상남도 사천시 사천읍 사천대로 1971 사천공항,35.0923042,128.086616,https://transportation.asamaru.net/시외버스/시간표/사천공항/
경상남도,사천시,사천터미널,대한민국 사천시 사천터미널,35.078327,128.095959,https://transportation.asamaru.net/시외버스/시간표/사천터미널/
경상남도,사천시,삼천포시외버스터미널,대한민국 사천시 삼천포시외버스터미널,34.939071,128.079759,https://transportation.asamaru.net/시외버스/시간표/삼천포시외버스터미널/
경상남도,사천시,용현(사천시),대한민국 사천시 용현,35.012795,128.061784,https://transportation.asamaru.net/시외버스/시간표/용현/
경상남도,사천시,우주항공청정류장,대한민국 경상남도 사천시 사남면 초전리 1988,35.0520049,128.0413561,https://transportation.asamaru.net/시외버스/시간표/우주항공청/
경상남도,산청군,덕산(산청),대한민국 경상남도 산청군 시천면 사리 726-29,35.2773119,127.8425733,https://transportation.asamaru.net/시외버스/시간표/덕산-산청/
경상남도,산청군,산청버스터미널,대한민국 산청군 산청시외버스터미널,35.416203,127.878796,https://transportation.asamaru.net/시외버스/시간표/산청시외버스터미널/
경상남도,산청군,생초버스정류장,대한민국 경상남도 산청군,35.4148575,127.8784814,https://transportation.asamaru.net/시외버스/시간표/생초시외버스터미널/
경상남도,산청군,원지버스정류소,대한민국 산청군 원지버스정류소,35.302767,127.974178,https://transportation.asamaru.net/시외버스/시간표/원지정류소/
경상남도,산청군,중산리(산청),대한민국 경상남도 산청군 시천면 중산리,35.3116006,127.7483739,https://transportation.asamaru.net/시외버스/시간표/중산리-산청/
경상남도,양산시,양산시외버스터미널,대한민국 경상남도 양산시 중앙동 삼일로 116-12 양산시외버스터미널,35.3356982,129.027013,https://transportation.asamaru.net/시외버스/시간표/양산시외버스터미널/
경상남도,의령군,가례정류장,대한민국 의령군 가례,35.323575,128.242994,https://transportation.asamaru.net/시외버스/시간표/가례/
경상남도,의령군,대의정류소,대한민국 의령군 대의,35.371717,128.106958,https://transportation.asamaru.net/시외버스/시간표/대의정류소/
경상남도,의령군,신반정류소,대한민국 의령군 신반버스합동터미널,35.466329,128.324199,https://transportation.asamaru.net/시외버스/시간표/신반정류소/
경상남도,의령군,의령버스터미널,대한민국 의령군 의령버스터미널,35.320314,128.252558,https://transportation.asamaru.net/시외버스/시간표/의령버스터미널/
경상남도,의령군,정암(의령군),대한민국 경상남도 의령군 의령읍 정암리 1-1 정암철교,35.3131893,128.2955428,https://transportation.asamaru.net/시외버스/시간표/정암/
경상남도,의령군,칠곡(의령),대한민국 의령군,35.3432413,128.1936642,https://transportation.asamaru.net/시외버스/시간표/칠곡/
경상남도,진주시,경남과학기술대학교정류소,대한민국 진주시 경남과학기술대학교정류소,35.17911,128.095342,https://transportation.asamaru.net/시외버스/시간표/경남과학기술대학교정류소/
경상남도,진주시,진주개양시외버스승강장,대한민국 진주시 개양정류소,35.159719,128.106625,https://transportation.asamaru.net/시외버스/시간표/개양정류소/
경상남도,진주시,진주도동정류소,대한민국 경상남도 진주시 대신로340번길 7,35.190936,128.1175621,https://transportation.asamaru.net/시외버스/시간표/진주도동터미널/
경상남도,진주시,진주시외버스터미널,대한민국 진주시 진주시외버스터미널,35.191356,128.089404,https://transportation.asamaru.net/시외버스/시간표/진주시외버스터미널/
경상남도,진주시,진주역,대한민국 진주시 진주역,35.150432,128.118247,https://transportation.asamaru.net/시외버스/시간표/진주역/
경상남도,진주시,진주혁신도시정류장,대한민국 진주시 진주혁신도시정류장,35.180593,128.147537,https://transportation.asamaru.net/시외버스/시간표/진주혁신도시터미널/
경상남도,창녕군,남지버스터미널,대한민국 창녕군 남지버스터미널,35.391328,128.4841165,https://transportation.asamaru.net/시외버스/시간표/창녕시외버스남지정류소/
경상남도,창녕군,부곡버스터미널,대한민국 창녕군 부곡버스터미널,35.437538,128.590558,https://transportation.asamaru.net/시외버스/시간표/부곡버스터미널/
경상남도,창녕군,영산정류소,대한민국 창녕군 영산정류소,35.456317,128.527482,https://transportation.asamaru.net/시외버스/시간표/영산정류소/
경상남도,창녕군,이방정류소,대한민국 창녕군 이방정류소,35.601166,128.382582,https://transportation.asamaru.net/시외버스/시간표/이방정류소/
경상남도,창녕군,창녕시외버스터미널,대한민국 창녕군 창녕시외버스터미널,35.5421593,128.4901949,https://transportation.asamaru.net/시외버스/시간표/창녕시외버스터미널/
경상남도,창원시 마산합포구,마산남부시외버스터미널,대한민국 경상남도 창원시 마산합포구 월영동서로 10,35.1790003,128.5604173,https://transportation.asamaru.net/시외버스/시간표/마산남부시외버스터미널/
경상남도,창원시 마산회원구,내서고속버스터미널,대한민국 창원시 내서고속버스터미널,35.25577,128.513188,https://transportation.asamaru.net/시외버스/시간표/내서고속버스터미널/
경상남도,창원시 마산회원구,마산시외버스터미널,대한민국 창원시 합성동 마산시외버스터미널,35.238785,128.583653,https://transportation.asamaru.net/시외버스/시간표/마산시외버스터미널/
경상남도,창원시 성산구,남산시외버스정류소,대한민국 창원시 남산시외버스정류소,35.20182399999999,128.697612,https://transportation.asamaru.net/시외버스/시간표/남산시외버스정류소/
경상남도,창원시 성산구,정우상가,대한민국 창원시,35.2284204,128.6794995,https://transportation.asamaru.net/시외버스/시간표/정우상가/
경상남도,창원시 의창구,창원역시외고속버스정류소,대한민국 창원시 창원역시외고속버스정류소,35.256761,128.6068784,https://transportation.asamaru.net/시외버스/시간표/창원역시외-고속버스정류소/
경상남도,창원시 의창구,창원종합버스터미널,대한민국 창원시 창원종합버스터미널,35.2366245,128.639385,https://transportation.asamaru.net/시외버스/시간표/창원종합버스터미널/
경상남도,창원시 진해구,용원시외버스센터,대한민국 경상남도 창원시 진해구 웅동2동 1125-1,35.0980927,128.8212948,https://transportation.asamaru.net/시외버스/시간표/용원시외버스터미널/
경상남도,창원시 진해구,진해경찰서정류소,대한민국 경상남도 창원시 진해구 진해대로 815,35.1562795,128.7037327,https://transportation.asamaru.net/시외버스/시간표/진해경찰서터미널/
경상남도,창원시 진해구,진해시외버스터미널,"진해시외버스터미널 KR, 인의동 창원시 대한민국",35.1446773,128.6614243,https://transportation.asamaru.net/시외버스/시간표/진해시외버스정류장/
경상남도,통영시,통영종합버스터미널,대한민국 통영시 통영종합버스터미널,34.885074,128.416926,https://transportation.asamaru.net/시외버스/시간표/통영종합버스터미널/
경상남도,하동군,개치,대한민국 하동군 개치,35.133123,127.695313,https://transportation.asamaru.net/시외버스/시간표/개치/
경상남도,하동군,전도정류소,대한민국 하동군 전도정류소,34.997505,127.807912,https://transportation.asamaru.net/시외버스/시간표/전도정류소/
경상남도,하동군,진교터미널,대한민국 하동군 진교면 진교터미널,35.029518,127.903385,https://transportation.asamaru.net/시외버스/시간표/진교시외버스터미널/
경상남도,하동군,하동(교통쉼터)정류장,대한민국 하동군 하동역,35.070939,127.757949,https://transportation.asamaru.net/시외버스/시간표/하동-교통쉼터-충주시/
경상남도,하동군,하동버스터미널,대한민국 경상남도 하동군 하동읍 비파리 250,35.0641674,127.7604466,https://transportation.asamaru.net/시외버스/시간표/하동버스터미널/
경상남도,하동군,화개버스터미널,대한민국 하동군 화개버스터미널,35.189822,127.623673,https://transportation.asamaru.net/시외버스/시간표/화개시외버스공용터미널/
경상남도,함안군,가야주공,대한민국 경상남도 함안군 가야읍 도항리 307 가야읍 도항리 307번지 함안군 경상남도 KR 52042,35.2771217,128.3976945,https://transportation.asamaru.net/시외버스/시간표/가야주공/
경상남도,함안군,군북버스터미널,대한민국 함안군 군북버스터미널,35.263412,128.343587,https://transportation.asamaru.net/시외버스/시간표/군북버스터미널/
경상남도,함안군,월촌(함안군),대한민국 함안군 월촌,35.299849,128.299066,https://transportation.asamaru.net/시외버스/시간표/월촌/
경상남도,함안군,함안버스터미널,대한민국 함안군 함안버스터미널,35.279522,128.4097,https://transportation.asamaru.net/시외버스/시간표/함안시외버스터미널/
경상남도,함양군,마천정류소,대한민국 함양군 마천정류소,35.3971,127.665881,https://transportation.asamaru.net/시외버스/시간표/마천정류소/
경상남도,함양군,백무동시외버스정류소,대한민국 함양군 백무동시외버스정류소,35.363175,127.680722,https://transportation.asamaru.net/시외버스/시간표/백무동시외버스정류소/
경상남도,함양군,서상버스터미널,대한민국 함양군 서상버스터미널,35.680165,127.687474,https://transportation.asamaru.net/시외버스/시간표/서상정류소/
경상남도,함양군,수동정류소,대한민국 함양군 수동정류소,35.522044,127.785379,https://transportation.asamaru.net/시외버스/시간표/수동정류소/
경상남도,함양군,안의버스터미널,대한민국 함양군 안의버스터미널,35.62866,127.813259,https://transportation.asamaru.net/시외버스/시간표/함양시외버스안의공용정류장/
경상남도,함양군,함양시외버스터미널,대한민국 경상남도 함양군 함양읍 용평리 681 함양시외버스터미널,35.5208538,127.7328655,https://transportation.asamaru.net/시외버스/시간표/함양시외버스터미널/
경상남도,합천군,대양,대한민국 경상남도 합천군,35.5682379,128.1636798,https://transportation.asamaru.net/시외버스/시간표/대양/
경상남도,합천군,삼가정류소,대한민국 합천군 삼가정류소,35.414439,128.121175,https://transportation.asamaru.net/시외버스/시간표/삼가정류소/
경상남도,합천군,쌍백정류장,대한민국 경상남도 합천군,35.5682379,128.1636798,https://transportation.asamaru.net/시외버스/시간표/쌍백/
경상남도,합천군,적교정류소,대한민국 합천군 적교정류소,35.526958,128.358482,https://transportation.asamaru.net/시외버스/시간표/적교정류소/
경상남도,합천군,합천버스정류장,대한민국 경상남도 합천군 합천읍 대야로 883,35.5672097,128.1629071,https://transportation.asamaru.net/시외버스/시간표/합천시외버스정류장/
경상남도,합천군,해인사시외버스터미널,대한민국 경상남도 합천군 가야면 치인리 10 해인사시외터미널,35.8013042,128.0975621,https://transportation.asamaru.net/시외버스/시간표/해인사시외버스터미널/
전북특별자치도,고창군,고창문화터미널,대한민국 고창군 고창문화터미널,35.435828,126.696233,https://transportation.asamaru.net/시외버스/시간표/고창문화터미널/
전북특별자치도,고창군,해리공용버스터미널,대한민국 고창군 해리공용터미널,35.456251,126.542465,https://transportation.asamaru.net/시외버스/시간표/해리공용터미널/
전북특별자치도,고창군,흥덕버스터미널,대한민국 고창군 흥덕공용버스터미널,35.518826,126.69931,https://transportation.asamaru.net/시외버스/시간표/흥덕공용버스터미널/
전북특별자치도,군산시,군산시외버스터미널,대한민국 전북특별자치도 군산시 경암동 해망로 18 군산시외버스터미널,35.977224,126.724425,https://transportation.asamaru.net/시외버스/시간표/군산시외버스터미널/
전북특별자치도,군산시,대야공용버스터미널,대한민국 군산시 대야공용버스터미널,35.946672,126.810157,https://transportation.asamaru.net/시외버스/시간표/대야공용버스터미널/
전북특별자치도,김제시,김제종합버스터미널,대한민국 김제시,35.800886,126.8863038,https://transportation.asamaru.net/시외버스/시간표/김제공용버스터미널/
전북특별자치도,남원시,남원공용버스터미널,대한민국 남원시 남원공용버스터미널,35.409938,127.387804,https://transportation.asamaru.net/시외버스/시간표/남원공용버스터미널/
전북특별자치도,남원시,달궁,대한민국 남원시 달궁,35.35245,127.555345,https://transportation.asamaru.net/시외버스/시간표/달궁/
전북특별자치도,남원시,반선시외버스터미널,대한민국 남원시 동충동 시외버스터미널,35.409636,127.38806,https://transportation.asamaru.net/시외버스/시간표/뱀사골/
전북특별자치도,남원시,인월지리산공용터미널,대한민국 남원시 인월지리산공용터미널,35.461369,127.603157,https://transportation.asamaru.net/시외버스/시간표/인월지리산공용터미널/
전북특별자치도,무주군,무주공용버스터미널,대한민국 무주군 무주공용버스터미널,36.004792,127.664335,https://transportation.asamaru.net/시외버스/시간표/무주공용버스터미널/
전북특별자치도,무주군,무주리조트,대한민국 전북특별자치도 무주군 설천면 심곡리 1209-19,35.89313620000001,127.7434697,https://transportation.asamaru.net/시외버스/시간표/무주리조트/
전북특별자치도,무주군,설천(무주군),대한민국 전북특별자치도 무주군 설천면,35.9543228,127.783095,https://transportation.asamaru.net/시외버스/시간표/설천/
전북특별자치도,무주군,안성시외버스터미널,대한민국 무주군 무주안성시외버스터미널,35.867463,127.653885,https://transportation.asamaru.net/시외버스/시간표/안성시외버스터미널/
전북특별자치도,부안군,부안터미널,대한민국 전북특별자치도 부안군,35.7264188,126.7371611,https://transportation.asamaru.net/시외버스/시간표/부안시외버스터미널/
전북특별자치도,순창군,순창공용버스정류장,대한민국 순창군 순창공용버스정류장,35.376897,127.141183,https://transportation.asamaru.net/시외버스/시간표/순창공용버스터미널/
전북특별자치도,완주군,둔산공원,대한민국 전북특별자치도 완주군 봉동읍 둔산3로 94 둔산공원,35.96206480000001,127.1283448,https://transportation.asamaru.net/시외버스/시간표/둔산공원/
전북특별자치도,완주군,봉동(완주군),대한민국 전북특별자치도 완주군 봉동읍,35.9501743,127.1377313,https://transportation.asamaru.net/시외버스/시간표/봉동/
전북특별자치도,완주군,삼례공용터미널,대한민국 완주군 삼례터미널,35.910177,127.075165,https://transportation.asamaru.net/시외버스/시간표/삼례공용버스터미널/
전북특별자치도,완주군,삼봉지구,대한민국 전북특별자치도 완주군 삼례읍 삼봉3로 50,35.9235335,127.1222965,https://transportation.asamaru.net/시외버스/시간표/삼봉지구/
전북특별자치도,완주군,완주혁신도시시외버스승강장,대한민국 전북특별자치도 완주군 이서면 갈산리 9-2,35.8329415,127.0565834,https://transportation.asamaru.net/시외버스/시간표/혁신도시간이정류소/
전북특별자치도,완주군,우석대정류소,대한민국 완주군 우석대정류소,35.91519,127.066986,https://transportation.asamaru.net/시외버스/시간표/우석대정류소/
전북특별자치도,완주군,익산IC정류장,완주군 익산IC,35.9916726,127.113916,https://transportation.asamaru.net/시외버스/시간표/익산ic/
전북특별자치도,완주군,장신대정류소,대한민국 완주군 장신대정류소,35.76420400000001,127.205063,https://transportation.asamaru.net/시외버스/시간표/장신대정류소/
전북특별자치도,익산시,금마,대한민국 전북특별자치도 익산시 금마면 금마4길 38,35.9916858,127.0565983,https://transportation.asamaru.net/시외버스/시간표/금마/
전북특별자치도,익산시,여산,대한민국 전북특별자치도 익산시 여산면,36.0512778,127.0912055,https://transportation.asamaru.net/시외버스/시간표/여산/
전북특별자치도,익산시,원광대학교앞정류소,대한민국 익산시 원광대학교,35.967828,126.952681,https://transportation.asamaru.net/시외버스/시간표/원광대시외버스정류소-승차/
전북특별자치도,익산시,익산시외버스터미널,대한민국 익산시 평화동 익산공용버스터미널,35.931095,126.943747,https://transportation.asamaru.net/시외버스/시간표/익산공용버스터미널/
전북특별자치도,익산시,익산역정류소,대한민국 익산시 익산역정류소,35.939513,126.946848,https://transportation.asamaru.net/시외버스/시간표/익산역정류소/
전북특별자치도,익산시,익산왕궁정류소,대한민국 전북특별자치도 익산시 왕궁면 흥암리 506-4 (왕궁로 533),35.96662,127.089308,https://transportation.asamaru.net/시외버스/시간표/익산왕궁터미널/
전북특별자치도,임실군,임실공용터미널,대한민국 전주시 금암동 전주시외버스공용터미널,35.8344307,127.1326877,https://transportation.asamaru.net/시외버스/시간표/임실시외버스터미널/
전북특별자치도,장수군,장계시외버스공용터미널,대한민국 장수군,35.7308091,127.5818671,https://transportation.asamaru.net/시외버스/시간표/장계시외공용버스터미널/
전북특별자치도,장수군,장수공용버스터미널,대한민국 장수군 장수공용버스터미널,35.648051,127.518442,https://transportation.asamaru.net/시외버스/시간표/장수공용버스터미널/
전북특별자치도,전주시 덕진구,덕진동정류장,대한민국 전북특별자치도 전주시 덕진구 덕진동,35.8474225,127.1271836,https://transportation.asamaru.net/시외버스/시간표/덕진공용정류장/
전북특별자치도,전주시 덕진구,인후동간이정류소,대한민국 전북특별자치도 전주시 덕진구 인후동1가,35.8326444,127.1597946,https://transportation.asamaru.net/시외버스/시간표/인후공용정류장/
전북특별자치도,전주시 덕진구,전주시외버스공용터미널,대한민국 전주시 금암동 전주시외버스공용터미널,35.8344307,127.1326877,https://transportation.asamaru.net/시외버스/시간표/전주시외버스공용터미널/
전북특별자치도,전주시 덕진구,호남제일문시외버스정류장,대한민국 전주시 호남제일문시외버스매표소,35.86958,127.071306,https://transportation.asamaru.net/시외버스/시간표/호남제일문시외버스매표소/
전북특별자치도,전주시 완산구,노송동정류소,대한민국 전북특별자치도 전주시 완산구 노송동,35.8234564,127.1541203,https://transportation.asamaru.net/시외버스/시간표/남노송동터미널/
전북특별자치도,전주시 완산구,완산동간이정류소,대한민국 전북특별자치도 전주시 완산구 서완산동1가 589-1 완산구 서완산동1가 589-1번지 전주시 전라북도 KR 55047,35.8115002,127.1387223,https://transportation.asamaru.net/시외버스/시간표/완산공용정류소/
전북특별자치도,전주시 완산구,전주대정류소,대한민국 전주시 전주대정류소,35.81649700000001,127.089134,https://transportation.asamaru.net/시외버스/시간표/전주대정류소/
전북특별자치도,전주시 완산구,전주리무진터미널,대한민국 전주시 전주 공항버스정류소,35.83397,127.133795,https://transportation.asamaru.net/시외버스/시간표/전주-리무진터미널/
전북특별자치도,전주시 완산구,효자서부시외버스간이정류소,대한민국 전북특별자치도 전주시 완산구 효자4동 1134-6,35.8031149,127.102742,https://transportation.asamaru.net/시외버스/시간표/서부시외버스간이정류소/
전북특별자치도,정읍시,신태인공영터미널,대한민국 정읍시 신태인공용터미널,35.690223,126.887581,https://transportation.asamaru.net/시외버스/시간표/신태인공용터미널/
전북특별자치도,정읍시,정읍고속버스터미널,대한민국 전주시 전주고속버스터미널,35.8356455,127.129305,https://transportation.asamaru.net/시외버스/시간표/정읍고속버스터미널/
전북특별자치도,정읍시,정읍시외버스터미널,대한민국 정읍시 정읍시외버스터미널,35.572266,126.845244,https://transportation.asamaru.net/시외버스/시간표/정읍시외버스공용터미널/
전북특별자치도,진안군,우화,대한민국 전북특별자치도 진안군 진안읍 구룡리 우화육교,35.7905357,127.4401958,https://transportation.asamaru.net/시외버스/시간표/우화/
전북특별자치도,진안군,진안시외버스공용정류장,대한민국 전북특별자치도 진안군 진안읍 군상리 403-1 진안시외버스공용정류장,35.79212,127.431029,https://transportation.asamaru.net/시외버스/시간표/진안시외버스공용정류장/
전라남도,강진군,강진버스여객터미널,대한민국 강진군 강진버스여객터미널,34.6383915,126.7680405,https://transportation.asamaru.net/시외버스/시간표/강진버스여객터미널/
전라남도,강진군,성전터미널,대한민국 강진군 성전면 성전터미널,34.691454,126.707823,https://transportation.asamaru.net/시외버스/시간표/성전터미널/
전라남도,강진군,전남인재개발원정류장,대한민국 강진군,34.5758073,126.7452366,https://transportation.asamaru.net/시외버스/시간표/전남인재개발원/
전라남도,고흥군,고흥공용버스정류장,대한민국 전라남도 고흥군 고흥읍 서문리 218-11번지 KR,34.6073336,127.2812061,https://transportation.asamaru.net/시외버스/시간표/고흥공용버스터미널/
전라남도,고흥군,과역버스터미널,대한민국 고흥군 과역버스터미널,34.6782315,127.360648,https://transportation.asamaru.net/시외버스/시간표/과역공용버스터미널/
전라남도,고흥군,나로도공용터미널,대한민국 고흥군 나로도공용버스터미널,34.4637045,127.4599275,https://transportation.asamaru.net/시외버스/시간표/나로도공용터미널/
전라남도,고흥군,남성정류장,대한민국 전라남도 고흥군,34.6105935,127.2846484,https://transportation.asamaru.net/시외버스/시간표/남성-고흥군/
전라남도,고흥군,녹동공영버스터미널,대한민국 전라남도 고흥군,34.6105935,127.2846484,https://transportation.asamaru.net/시외버스/시간표/녹동버스공용터미널/
전라남도,고흥군,도화(고흥군),대한민국 전라남도 고흥군 도화면 도화로 476,34.5143519,127.3200175,https://transportation.asamaru.net/시외버스/시간표/도화/
전라남도,고흥군,백양정류장(고흥군),대한민국 전라남도 고흥군 동일면 백양리 788,34.5037168,127.4656708,https://transportation.asamaru.net/시외버스/시간표/백양/
전라남도,고흥군,소록도,고흥군 소록도,34.5103489,127.1137036,https://transportation.asamaru.net/시외버스/시간표/소록도/
전라남도,고흥군,포두정류장,대한민국 전라남도 고흥군,34.6105935,127.2846484,https://transportation.asamaru.net/시외버스/시간표/포두/
전라남도,곡성군,곡성버스터미널,대한민국 곡성군 곡성버스터미널,35.278783,127.294134,https://transportation.asamaru.net/시외버스/시간표/곡성버스터미널/
전라남도,곡성군,석곡터미널,대한민국 곡성군 석곡터미널,35.132003,127.253708,https://transportation.asamaru.net/시외버스/시간표/석곡터미널/
전라남도,곡성군,옥과터미널,대한민국 곡성군 옥과터미널,35.276554,127.136439,https://transportation.asamaru.net/시외버스/시간표/옥과터미널/
전라남도,광양시,광양터미널,대한민국 광양시 광양터미널,34.9695739,127.5897757,https://transportation.asamaru.net/시외버스/시간표/광양시외버스터미널/
전라남도,광양시,광영,대한민국 전라남도 광양시 광영동,34.9602841,127.7196686,https://transportation.asamaru.net/시외버스/시간표/광영/
전라남도,광양시,동광양중마버스터미널,대한민국 전라남도 광양시 세동길 3-1,34.9456215,127.6962405,https://transportation.asamaru.net/시외버스/시간표/중마버스터미널/
전라남도,광양시,섬진강휴게소(순천방향)고속버스환승정류소,대한민국 전라남도 광양시 진월면 신답길 24-14,34.9859706,127.7692135,https://transportation.asamaru.net/시외버스/시간표/섬진강휴게소정류소-전남방면-고속/
전라남도,구례군,구례공영버스터미널,대한민국 구례군 구례공영버스터미널,35.206494,127.468663,https://transportation.asamaru.net/시외버스/시간표/구례공영버스터미널/
전라남도,구례군,노고단(성삼재)정류소,대한민국 구례군 노고단(성삼재)정류소,35.306093,127.511481,https://transportation.asamaru.net/시외버스/시간표/노고단-성삼재-정류소/
전라남도,나주시,나주버스터미널,대한민국 전라남도 나주시 나주로 192,35.0331332,126.7213107,https://transportation.asamaru.net/시외버스/시간표/나주시외버스터미널/
전라남도,나주시,빛가람시외버스정류장,대한민국 전라남도 나주시 문화로 204,35.0166828,126.7842101,https://transportation.asamaru.net/시외버스/시간표/혁신도시임시정류소/
전라남도,나주시,영산포공용터미널,대한민국 전라남도 나주시 예향로 3803,34.9946593,126.7125263,https://transportation.asamaru.net/시외버스/시간표/영산포공용버스터미널/
전라남도,담양군,금성(담양군),대한민국 전라남도 담양군 금성면 석현리 51,35.34038779999999,127.021525,https://transportation.asamaru.net/시외버스/시간표/금성/
전라남도,담양군,담양공용버스터미널,대한민국 담양군 담양공용버스터미널,35.315177,126.983906,https://transportation.asamaru.net/시외버스/시간표/담양공용버스터미널/
전라남도,목포시,목포종합버스터미널,대한민국 목포시 목포종합버스터미널,34.812862,126.4175975,https://transportation.asamaru.net/시외버스/시간표/목포종합버스터미널/
전라남도,무안군,남악정류소,대한민국 무안군 남악정류소,34.81459,126.462247,https://transportation.asamaru.net/시외버스/시간표/남악정류소/
전라남도,무안군,목포대,대한민국 전라남도 무안군 청계면 영산로 1666,34.910319,126.4361795,https://transportation.asamaru.net/시외버스/시간표/목포대/
전라남도,무안군,무안버스터미널,대한민국 무안군 무안버스터미널,34.988004,126.478707,https://transportation.asamaru.net/시외버스/시간표/무안공용버스터미널/
전라남도,무안군,청계정류소,대한민국 무안군 청계정류소,34.9096447,126.4301424,https://transportation.asamaru.net/시외버스/시간표/청계정류소/
전라남도,무안군,현경정류소,대한민국 무안군 현경정류소,35.0209547,126.4120767,https://transportation.asamaru.net/시외버스/시간표/현경정류소/
전라남도,보성군,녹차밭정류소,대한민국 전라남도 보성군 보성읍 녹차로 763-67,34.7156297,127.0787852,https://transportation.asamaru.net/시외버스/시간표/녹차밭터미널/
전라남도,보성군,문덕버스정류장,대한민국 보성군 문덕버스정류장,34.928293,127.170438,https://transportation.asamaru.net/시외버스/시간표/문덕시외버스공용정류장/
전라남도,보성군,벌교공용버스터미널,대한민국 보성군 벌교공용버스터미널,34.848132,127.351055,https://transportation.asamaru.net/시외버스/시간표/벌교버스공용터미널/
전라남도,보성군,보성버스터미널,대한민국 보성군 보성버스터미널,34.763961,127.075681,https://transportation.asamaru.net/시외버스/시간표/보성시외버스터미널/
전라남도,보성군,보성북문버스정류장,대한민국 보성군 북문버스정류장,34.771569,127.080458,https://transportation.asamaru.net/시외버스/시간표/보성북문터미널/
전라남도,보성군,복내정류소,대한민국 보성군 복내정류소,34.893572,127.13198,https://transportation.asamaru.net/시외버스/시간표/복내공용정류소/
전라남도,보성군,예당정류소,대한민국 보성군 예당,34.779302,127.199768,https://transportation.asamaru.net/시외버스/시간표/예당정류소/
전라남도,보성군,율포정류소,대한민국 전라남도 보성군 벌교읍 벌교리,34.8425636,127.3440071,https://transportation.asamaru.net/시외버스/시간표/율포터미널/
전라남도,보성군,조성정류소,대한민국 전라남도 보성군 벌교읍 벌교리,34.8425636,127.3440071,https://transportation.asamaru.net/시외버스/시간표/조성터미널/
전라남도,순천시,곡천정류소,대한민국 전라남도 순천시 주암면 광천리 163-4번지 KR,35.0766475,127.2342922,https://transportation.asamaru.net/시외버스/시간표/곡천터미널/
전라남도,순천시,광천시외버스터미널,대한민국 순천시 광천시외버스터미널,35.076691,127.234119,https://transportation.asamaru.net/시외버스/시간표/주암공용버스터미널/
전라남도,순천시,순천북부정류소,대한민국 전라남도 순천시 매곡동 475-1,34.9660169,127.4849124,https://transportation.asamaru.net/시외버스/시간표/북부정류소/
전라남도,순천시,순천신대지구CGV정류소,순천시 순천신대지구,34.9376669,127.5486799,https://transportation.asamaru.net/시외버스/시간표/신대지구터미널/
전라남도,순천시,순천역시외버스정류장,대한민국 순천시 순천역,34.945789,127.50326,https://transportation.asamaru.net/시외버스/시간표/순천역터미널/
전라남도,순천시,순천종합버스터미널,대한민국 전라남도 순천시 장천동 13 순천종합버스터미널,34.9475901,127.4913888,https://transportation.asamaru.net/시외버스/시간표/순천종합버스터미널/
전라남도,신안군,우전리욕장,대한민국 전라남도 신안군 증도면 우전리,34.9597018,126.1369567,https://transportation.asamaru.net/시외버스/시간표/우전리욕장/
전라남도,신안군,지도여객자동차터미널,대한민국 신안군 지도여객자동차터미널,35.059503,126.211177,https://transportation.asamaru.net/시외버스/시간표/지도여객자동차터미널/
전라남도,여수시,덕양시외버스터미널,대한민국 여수시 시외버스터미널,34.758028,127.716997,https://transportation.asamaru.net/시외버스/시간표/덕양시외버스터미널/
전라남도,여수시,여수종합버스터미널,대한민국 여수시 여수종합버스터미널,34.758153,127.716951,https://transportation.asamaru.net/시외버스/시간표/여수종합버스터미널/
전라남도,여수시,여천시외버스정류장,대한민국 여수시 여천고속직행버스정류장,34.777417,127.651889,https://transportation.asamaru.net/시외버스/시간표/여천시외버스정류장/
전라남도,영광군,법성버스정류장,대한민국 영광군 법성버스정류장,35.358425,126.44461,https://transportation.asamaru.net/시외버스/시간표/법성포공용터미널/
전라남도,영광군,영광종합버스터미널,대한민국 영광군 전라남도 영광군 영광읍 신남로 180 (영광읍),35.2758602,126.5021778,https://transportation.asamaru.net/시외버스/시간표/영광종합버스터미널/
전라남도,영광군,홍농버스터미널,대한민국 영광군 홍농버스터미널,35.39414,126.444794,https://transportation.asamaru.net/시외버스/시간표/홍농버스터미널/
전라남도,영암군,독천터미널,대한민국 영암군 미암면 독천터미널,34.7247223,126.5695347,https://transportation.asamaru.net/시외버스/시간표/독천터미널/
전라남도,영암군,삼호정류소,대한민국 전라남도 영암군 삼호읍 용앙리 262,34.7504765,126.4681197,https://transportation.asamaru.net/시외버스/시간표/삼호버스종합터미널/
전라남도,영암군,신북터미널,대한민국 전라남도 영암군 신북면 월평리 신북시외버스터미널,34.8880186,126.6899682,https://transportation.asamaru.net/시외버스/시간표/신북시외버스터미널/
전라남도,영암군,영암여객자동차터미널,대한민국 영암군 영암여객자동차터미널,34.796791,126.702682,https://transportation.asamaru.net/시외버스/시간표/영암여객자동차터미널/
전라남도,완도군,고금시외버스정류장,대한민국 완도군 고금시외버스정류장,34.396498,126.803019,https://transportation.asamaru.net/시외버스/시간표/고금정류소/
전라남도,완도군,당목정류소,대한민국 완도군 당목,34.382635,126.937146,https://transportation.asamaru.net/시외버스/시간표/당목터미널/
전라남도,완도군,완도공용버스터미널,대한민국 완도군 완도공용버스터미널,34.318524,126.744976,https://transportation.asamaru.net/시외버스/시간표/완도공용버스터미널/
전라남도,완도군,원동버스터미널,대한민국 완도군 원동버스터미널,34.392423,126.648799,https://transportation.asamaru.net/시외버스/시간표/원동정류소/
전라남도,완도군,해양치유센터(완도),대한민국 전라남도 완도군 신지면 내정2길 52-1,34.3298294,126.8242712,https://transportation.asamaru.net/시외버스/시간표/해양치유센터-완도/
전라남도,장성군,내장사(장성),대한민국 장성군 장성읍 장성,35.299933,126.780175,https://transportation.asamaru.net/시외버스/시간표/내장사-장성/
전라남도,장성군,사창정류소,대한민국 장성군 사창,35.259751,126.663938,https://transportation.asamaru.net/시외버스/시간표/사창터미널/
전라남도,장성군,상무대정류소,대한민국 장성군 상무대정문,35.240491,126.605048,https://transportation.asamaru.net/시외버스/시간표/상무대터미널/
전라남도,장성군,상무아파트정류소,대한민국 장성군 상무아파트,35.256328,126.668838,https://transportation.asamaru.net/시외버스/시간표/상무아파트터미널/
전라남도,장성군,신흥정류소(장성),대한민국 장성군 장성읍 장성,35.299933,126.780175,https://transportation.asamaru.net/시외버스/시간표/신흥터미널/
전라남도,장성군,장성공영버스터미널,대한민국 전라남도 장성군 장성읍 영천로 125,35.2969867,126.7810067,https://transportation.asamaru.net/시외버스/시간표/장성공용버스터미널/
전라남도,장성군,장성사거리버스여객터미널,대한민국 장성군 사거리버스터미널,35.430593,126.809758,https://transportation.asamaru.net/시외버스/시간표/장성사거리버스여객터미널/
전라남도,장흥군,관산터미널,대한민국 장흥군 관산,34.563439,126.938396,https://transportation.asamaru.net/시외버스/시간표/관산공용버스터미널/
전라남도,장흥군,대덕버스정류소,대한민국 장흥군 대덕버스정류소,34.499059,126.890082,https://transportation.asamaru.net/시외버스/시간표/대덕공용버스터미널/
전라남도,장흥군,배산정류소,대한민국 장흥군 배산정류소,34.751524,126.996188,https://transportation.asamaru.net/시외버스/시간표/배산정류소/
전라남도,장흥군,용산정류소,대한민국 장흥군 용산정류소,34.614499,126.914849,https://transportation.asamaru.net/시외버스/시간표/용산정류소/
전라남도,장흥군,장평정류소,대한민국 전라남도 장흥군 장평면 용강리 42-1 장평정류장,34.775079,126.974567,https://transportation.asamaru.net/시외버스/시간표/장평정류소/
전라남도,장흥군,장흥시외버스터미널,대한민국 장흥군 장흥시외버스터미널,34.6771745,126.909861,https://transportation.asamaru.net/시외버스/시간표/장흥시외버스터미널/
전라남도,장흥군,회진시외버스터미널,대한민국 장흥군 회진시외버스터미널,34.485152,126.939148,https://transportation.asamaru.net/시외버스/시간표/회진시외버스터미널/
전라남도,진도군,녹진,대한민국 진도군,34.5654954,126.2820306,https://transportation.asamaru.net/시외버스/시간표/녹진/
전라남도,진도군,쏠비치진도정류소,대한민국 전라남도 진도군 의신면 송군길 30-40,34.4005534,126.3281055,https://transportation.asamaru.net/시외버스/시간표/쏠비치진도터미널/
전라남도,진도군,진도공용터미널,대한민국 진도군 진도공용터미널,34.4787235,126.263583,https://transportation.asamaru.net/시외버스/시간표/진도공용터미널/
전라남도,진도군,진도항화물터미널,대한민국 전라남도 진도군 임회면 진도항길 101 팽목마,34.3741285,126.1344096,https://transportation.asamaru.net/시외버스/시간표/진도항/
전라남도,함평군,문장공영터미널,대한민국 함평군 문장공영터미널,35.181099,126.605591,https://transportation.asamaru.net/시외버스/시간표/문장공영터미널/
전라남도,함평군,함평공영터미널,대한민국 함평군 함평공영터미널,35.062012,126.523417,https://transportation.asamaru.net/시외버스/시간표/함평공용터미널/
전라남도,해남군,남리정류소,대한민국 해남군 황산면 남리정류소,34.576221,126.434784,https://transportation.asamaru.net/시외버스/시간표/남리정류소/
전라남도,해남군,남창시외버스터미널,대한민국 해남군 남창시외버스터미널,34.404957,126.6264,https://transportation.asamaru.net/시외버스/시간표/남창정류소/
전라남도,해남군,땅끝정류소,대한민국 해남군 땅끝정류소,34.298486,126.529385,https://transportation.asamaru.net/시외버스/시간표/땅끝정류소/
전라남도,해남군,산정정류소,대한민국 해남군 산정정류소,34.370206,126.520415,https://transportation.asamaru.net/시외버스/시간표/산정정류소/
전라남도,해남군,우수영정류소,대한민국 해남군 우수영정류소,34.593758,126.314201,https://transportation.asamaru.net/시외버스/시간표/우수영정류소/
전라남도,해남군,월송자동차여객터미널,대한민국 전라남도 해남군,34.5743438,126.5908497,https://transportation.asamaru.net/시외버스/시간표/월송정류소/
전라남도,해남군,해남종합버스터미널,대한민국 해남군 해남종합버스터미널,34.570687,126.607958,https://transportation.asamaru.net/시외버스/시간표/해남종합버스터미널/
전라남도,화순군,화순전남대병원,대한민국 전라남도 화순군,35.0604404,126.9882884,https://transportation.asamaru.net/시외버스/시간표/화순전남대병원/
